{
"type": "FeatureCollection",
"name": "geo_colpa_belgica",
"crs": { "type": "name", "properties": { "name": "urn:ogc:def:crs:OGC:1.3:CRS84" } },
"xy_coordinate_resolution": 1e-05,
"features": [
{ "type": "Feature", "properties": { "i": 0 }, "geometry": { "type": "Polygon", "coordinates": [ [ [ -63.31215, -17.59545 ], [ -63.31253, -17.59574 ], [ -63.31256, -17.59575 ], [ -63.31264, -17.59572 ], [ -63.31332, -17.59392 ], [ -63.31332, -17.59384 ], [ -63.31287, -17.59366 ], [ -63.3128, -17.59368 ], [ -63.31213, -17.59535 ], [ -63.31215, -17.59545 ] ] ] } },
{ "type": "Feature", "properties": { "i": 1 }, "geometry": { "type": "Polygon", "coordinates": [ [ [ -63.31159, -17.59521 ], [ -63.31196, -17.59535 ], [ -63.312, -17.59535 ], [ -63.31207, -17.59531 ], [ -63.3127, -17.5937 ], [ -63.31268, -17.59359 ], [ -63.31264, -17.59356 ], [ -63.31225, -17.59342 ], [ -63.31219, -17.59342 ], [ -63.31215, -17.59345 ], [ -63.31151, -17.59509 ], [ -63.31151, -17.59515 ], [ -63.31159, -17.59521 ] ] ] } },
{ "type": "Feature", "properties": { "i": 2 }, "geometry": { "type": "Polygon", "coordinates": [ [ [ -63.30792, -17.59563 ], [ -63.30823, -17.59492 ], [ -63.30847, -17.59495 ], [ -63.30858, -17.59469 ], [ -63.30798, -17.59454 ], [ -63.3077, -17.59532 ], [ -63.30765, -17.5953 ], [ -63.30792, -17.59452 ], [ -63.30757, -17.59444 ], [ -63.30728, -17.59514 ], [ -63.3073, -17.59521 ], [ -63.30735, -17.59532 ], [ -63.30747, -17.59546 ], [ -63.30792, -17.59563 ] ] ] } },
{ "type": "Feature", "properties": { "i": 3 }, "geometry": { "type": "Polygon", "coordinates": [ [ [ -63.31205, -17.59338 ], [ -63.31143, -17.59317 ], [ -63.31077, -17.59489 ], [ -63.31136, -17.59512 ], [ -63.31205, -17.59338 ] ] ] } },
{ "type": "Feature", "properties": { "i": 4 }, "geometry": { "type": "Polygon", "coordinates": [ [ [ -63.30725, -17.59501 ], [ -63.30745, -17.59451 ], [ -63.30739, -17.59447 ], [ -63.30697, -17.59432 ], [ -63.30673, -17.5948 ], [ -63.30725, -17.59501 ] ] ] } },
{ "type": "Feature", "properties": { "i": 5 }, "geometry": { "type": "Polygon", "coordinates": [ [ [ -63.30932, -17.59459 ], [ -63.30929, -17.5945 ], [ -63.30876, -17.59409 ], [ -63.30871, -17.59409 ], [ -63.30869, -17.59411 ], [ -63.30857, -17.59458 ], [ -63.30921, -17.59478 ], [ -63.30932, -17.59459 ] ] ] } },
{ "type": "Feature", "properties": { "i": 6 }, "geometry": { "type": "Polygon", "coordinates": [ [ [ -63.31125, -17.59311 ], [ -63.31043, -17.5928 ], [ -63.3103, -17.59285 ], [ -63.30979, -17.59394 ], [ -63.30957, -17.59448 ], [ -63.31061, -17.59484 ], [ -63.31125, -17.59311 ] ] ] } },
{ "type": "Feature", "properties": { "i": 7 }, "geometry": { "type": "Polygon", "coordinates": [ [ [ -63.30647, -17.59408 ], [ -63.30628, -17.5945 ], [ -63.30668, -17.59468 ], [ -63.30694, -17.59415 ], [ -63.30657, -17.59403 ], [ -63.30652, -17.59403 ], [ -63.30647, -17.59408 ] ] ] } },
{ "type": "Feature", "properties": { "i": 8 }, "geometry": { "type": "Polygon", "coordinates": [ [ [ -63.31409, -17.59207 ], [ -63.31409, -17.59201 ], [ -63.31407, -17.59199 ], [ -63.31366, -17.59183 ], [ -63.31359, -17.59183 ], [ -63.31357, -17.59185 ], [ -63.31291, -17.59347 ], [ -63.31291, -17.59351 ], [ -63.31294, -17.59354 ], [ -63.31333, -17.59371 ], [ -63.31341, -17.59371 ], [ -63.31344, -17.59369 ], [ -63.31409, -17.59207 ] ] ] } },
{ "type": "Feature", "properties": { "i": 9 }, "geometry": { "type": "Polygon", "coordinates": [ [ [ -63.30874, -17.59381 ], [ -63.30876, -17.59385 ], [ -63.30879, -17.59386 ], [ -63.30918, -17.59378 ], [ -63.30925, -17.5931 ], [ -63.3092, -17.59305 ], [ -63.30863, -17.59287 ], [ -63.30874, -17.59312 ], [ -63.30876, -17.59334 ], [ -63.30874, -17.59381 ] ] ] } },
{ "type": "Feature", "properties": { "i": 10 }, "geometry": { "type": "Polygon", "coordinates": [ [ [ -63.30717, -17.59337 ], [ -63.30711, -17.5933 ], [ -63.30699, -17.59325 ], [ -63.30637, -17.59304 ], [ -63.30579, -17.59434 ], [ -63.30623, -17.59449 ], [ -63.30646, -17.59396 ], [ -63.30693, -17.59409 ], [ -63.30702, -17.59407 ], [ -63.30717, -17.59337 ] ] ] } },
{ "type": "Feature", "properties": { "i": 11 }, "geometry": { "type": "Polygon", "coordinates": [ [ [ -63.31011, -17.59293 ], [ -63.30849, -17.59212 ], [ -63.30822, -17.59236 ], [ -63.30861, -17.5928 ], [ -63.30931, -17.59304 ], [ -63.3093, -17.59351 ], [ -63.30923, -17.59383 ], [ -63.30889, -17.5939 ], [ -63.30884, -17.59393 ], [ -63.30883, -17.594 ], [ -63.30924, -17.59433 ], [ -63.30945, -17.59441 ], [ -63.31011, -17.59293 ] ] ] } },
{ "type": "Feature", "properties": { "i": 12 }, "geometry": { "type": "Polygon", "coordinates": [ [ [ -63.31339, -17.59174 ], [ -63.31303, -17.59161 ], [ -63.3129, -17.5916 ], [ -63.31228, -17.59321 ], [ -63.31228, -17.59326 ], [ -63.31233, -17.59331 ], [ -63.3127, -17.59345 ], [ -63.31279, -17.59343 ], [ -63.31346, -17.59184 ], [ -63.31346, -17.59179 ], [ -63.31339, -17.59174 ] ] ] } },
{ "type": "Feature", "properties": { "i": 13 }, "geometry": { "type": "Polygon", "coordinates": [ [ [ -63.30752, -17.59439 ], [ -63.30767, -17.59382 ], [ -63.30784, -17.59281 ], [ -63.30741, -17.59265 ], [ -63.30729, -17.59307 ], [ -63.30721, -17.59344 ], [ -63.30718, -17.59371 ], [ -63.30703, -17.59426 ], [ -63.30746, -17.59442 ], [ -63.30752, -17.59439 ] ] ] } },
{ "type": "Feature", "properties": { "i": 14 }, "geometry": { "type": "Polygon", "coordinates": [ [ [ -63.30853, -17.59308 ], [ -63.30808, -17.59233 ], [ -63.30803, -17.59233 ], [ -63.30799, -17.59243 ], [ -63.30787, -17.59311 ], [ -63.30781, -17.59363 ], [ -63.30783, -17.59368 ], [ -63.30845, -17.59382 ], [ -63.30857, -17.59328 ], [ -63.30853, -17.59308 ] ] ] } },
{ "type": "Feature", "properties": { "i": 15 }, "geometry": { "type": "Polygon", "coordinates": [ [ [ -63.30774, -17.59133 ], [ -63.30741, -17.59258 ], [ -63.30785, -17.59274 ], [ -63.30799, -17.59226 ], [ -63.30801, -17.5921 ], [ -63.30799, -17.59195 ], [ -63.30782, -17.59149 ], [ -63.30774, -17.59133 ] ] ] } },
{ "type": "Feature", "properties": { "i": 16 }, "geometry": { "type": "Polygon", "coordinates": [ [ [ -63.30726, -17.59181 ], [ -63.30693, -17.59161 ], [ -63.3076, -17.59106 ], [ -63.30771, -17.59126 ], [ -63.30719, -17.59321 ], [ -63.30715, -17.59325 ], [ -63.30708, -17.59325 ], [ -63.30653, -17.59305 ], [ -63.3065, -17.59302 ], [ -63.30649, -17.59296 ], [ -63.30726, -17.59181 ] ] ] } },
{ "type": "Feature", "properties": { "i": 17 }, "geometry": { "type": "Polygon", "coordinates": [ [ [ -63.30874, -17.59171 ], [ -63.30828, -17.59052 ], [ -63.30821, -17.59052 ], [ -63.30767, -17.59076 ], [ -63.30766, -17.59079 ], [ -63.30794, -17.59145 ], [ -63.30809, -17.59197 ], [ -63.30813, -17.59226 ], [ -63.30815, -17.59229 ], [ -63.30825, -17.59224 ], [ -63.3084, -17.59212 ], [ -63.30874, -17.59171 ] ] ] } },
{ "type": "Feature", "properties": { "i": 18 }, "geometry": { "type": "Polygon", "coordinates": [ [ [ -63.30854, -17.59027 ], [ -63.30729, -17.58955 ], [ -63.30723, -17.58958 ], [ -63.30764, -17.59065 ], [ -63.30854, -17.59027 ] ] ] } },
{ "type": "Feature", "properties": { "i": 19 }, "geometry": { "type": "Polygon", "coordinates": [ [ [ -63.30695, -17.58956 ], [ -63.30607, -17.58903 ], [ -63.30541, -17.59084 ], [ -63.30686, -17.59156 ], [ -63.30757, -17.59098 ], [ -63.30757, -17.59093 ], [ -63.30708, -17.5897 ], [ -63.30695, -17.58956 ] ] ] } },
{ "type": "Feature", "properties": { "i": 20 }, "geometry": { "type": "Polygon", "coordinates": [ [ [ -63.23506, -17.58102 ], [ -63.23515, -17.58104 ], [ -63.23551, -17.58089 ], [ -63.23553, -17.58082 ], [ -63.23498, -17.57986 ], [ -63.23446, -17.57904 ], [ -63.2339, -17.57903 ], [ -63.23388, -17.57908 ], [ -63.23506, -17.58102 ] ] ] } },
{ "type": "Feature", "properties": { "i": 21 }, "geometry": { "type": "Polygon", "coordinates": [ [ [ -63.23626, -17.58047 ], [ -63.23601, -17.5801 ], [ -63.23603, -17.58004 ], [ -63.23811, -17.57908 ], [ -63.23822, -17.57906 ], [ -63.23871, -17.57907 ], [ -63.23885, -17.57928 ], [ -63.23883, -17.57937 ], [ -63.2364, -17.58049 ], [ -63.2363, -17.5805 ], [ -63.23626, -17.58047 ] ] ] } },
{ "type": "Feature", "properties": { "i": 22 }, "geometry": { "type": "Polygon", "coordinates": [ [ [ -63.23785, -17.57908 ], [ -63.23782, -17.57904 ], [ -63.23546, -17.57904 ], [ -63.23543, -17.57907 ], [ -63.23543, -17.57914 ], [ -63.2357, -17.57957 ], [ -63.23673, -17.57961 ], [ -63.23784, -17.57912 ], [ -63.23785, -17.57908 ] ] ] } },
{ "type": "Feature", "properties": { "i": 23 }, "geometry": { "type": "Polygon", "coordinates": [ [ [ -63.23972, -17.57808 ], [ -63.23872, -17.57895 ], [ -63.23407, -17.57893 ], [ -63.23405, -17.57891 ], [ -63.23397, -17.57748 ], [ -63.23444, -17.57737 ], [ -63.23448, -17.57737 ], [ -63.23452, -17.57741 ], [ -63.2346, -17.57835 ], [ -63.23873, -17.57839 ], [ -63.23887, -17.57833 ], [ -63.23905, -17.5782 ], [ -63.23937, -17.57777 ], [ -63.23937, -17.57769 ], [ -63.23933, -17.57765 ], [ -63.23915, -17.57764 ], [ -63.23912, -17.57761 ], [ -63.23911, -17.57681 ], [ -63.23914, -17.5768 ], [ -63.23964, -17.57691 ], [ -63.23949, -17.57716 ], [ -63.23945, -17.57731 ], [ -63.23956, -17.57766 ], [ -63.23974, -17.57798 ], [ -63.23975, -17.57802 ], [ -63.23972, -17.57808 ] ] ] } },
{ "type": "Feature", "properties": { "i": 24 }, "geometry": { "type": "Polygon", "coordinates": [ [ [ -63.23861, -17.57589 ], [ -63.23864, -17.57593 ], [ -63.23972, -17.57613 ], [ -63.23975, -17.57609 ], [ -63.23977, -17.5755 ], [ -63.23973, -17.57547 ], [ -63.23873, -17.57533 ], [ -63.23869, -17.57537 ], [ -63.23861, -17.57589 ] ] ] } },
{ "type": "Feature", "properties": { "i": 25 }, "geometry": { "type": "Polygon", "coordinates": [ [ [ -63.23857, -17.57531 ], [ -63.23695, -17.57504 ], [ -63.23716, -17.57564 ], [ -63.23846, -17.57589 ], [ -63.23852, -17.57585 ], [ -63.2386, -17.57536 ], [ -63.23857, -17.57531 ] ] ] } },
{ "type": "Feature", "properties": { "i": 26 }, "geometry": { "type": "Polygon", "coordinates": [ [ [ -63.23948, -17.57174 ], [ -63.24144, -17.57084 ], [ -63.24286, -17.57088 ], [ -63.24291, -17.57089 ], [ -63.24357, -17.57125 ], [ -63.24288, -17.57228 ], [ -63.24337, -17.57487 ], [ -63.23987, -17.57417 ], [ -63.23985, -17.57386 ], [ -63.23926, -17.57242 ], [ -63.23926, -17.57236 ], [ -63.23939, -17.57206 ], [ -63.23942, -17.5718 ], [ -63.23948, -17.57174 ] ] ] } },
{ "type": "Feature", "properties": { "i": 27 }, "geometry": { "type": "Polygon", "coordinates": [ [ [ -63.23975, -17.5754 ], [ -63.2398, -17.57537 ], [ -63.2398, -17.57503 ], [ -63.23978, -17.57501 ], [ -63.23677, -17.57444 ], [ -63.23693, -17.57496 ], [ -63.23975, -17.5754 ] ] ] } },
{ "type": "Feature", "properties": { "i": 28 }, "geometry": { "type": "Polygon", "coordinates": [ [ [ -63.2324, -17.57543 ], [ -63.23246, -17.57517 ], [ -63.2324, -17.57512 ], [ -63.2315, -17.57497 ], [ -63.23136, -17.57525 ], [ -63.23235, -17.57546 ], [ -63.2324, -17.57543 ] ] ] } },
{ "type": "Feature", "properties": { "i": 29 }, "geometry": { "type": "Polygon", "coordinates": [ [ [ -63.2326, -17.57505 ], [ -63.23244, -17.57557 ], [ -63.23246, -17.57562 ], [ -63.23388, -17.57563 ], [ -63.23419, -17.57534 ], [ -63.23421, -17.57528 ], [ -63.2342, -17.57522 ], [ -63.23398, -17.57489 ], [ -63.23388, -17.57482 ], [ -63.23317, -17.5746 ], [ -63.23312, -17.57456 ], [ -63.23307, -17.57446 ], [ -63.23308, -17.57431 ], [ -63.23313, -17.57424 ], [ -63.2332, -17.57419 ], [ -63.23425, -17.57413 ], [ -63.23427, -17.57405 ], [ -63.23422, -17.57363 ], [ -63.23418, -17.57359 ], [ -63.23264, -17.57363 ], [ -63.23261, -17.57365 ], [ -63.23268, -17.57428 ], [ -63.2327, -17.57481 ], [ -63.23265, -17.57498 ], [ -63.2326, -17.57505 ] ] ] } },
{ "type": "Feature", "properties": { "i": 30 }, "geometry": { "type": "Polygon", "coordinates": [ [ [ -63.23938, -17.57183 ], [ -63.23937, -17.5718 ], [ -63.23931, -17.57179 ], [ -63.23913, -17.57187 ], [ -63.23896, -17.5719 ], [ -63.23878, -17.5719 ], [ -63.2383, -17.57181 ], [ -63.23786, -17.57166 ], [ -63.23765, -17.57155 ], [ -63.23743, -17.57139 ], [ -63.23709, -17.57106 ], [ -63.23685, -17.57078 ], [ -63.23654, -17.57056 ], [ -63.2362, -17.57039 ], [ -63.23588, -17.57029 ], [ -63.23599, -17.57086 ], [ -63.23645, -17.57226 ], [ -63.2364, -17.57228 ], [ -63.23594, -17.57086 ], [ -63.23581, -17.57027 ], [ -63.2355, -17.5702 ], [ -63.23514, -17.57017 ], [ -63.23531, -17.57136 ], [ -63.23547, -17.57183 ], [ -63.2358, -17.57239 ], [ -63.2364, -17.57428 ], [ -63.2398, -17.57494 ], [ -63.23982, -17.57387 ], [ -63.23936, -17.57271 ], [ -63.23922, -17.57243 ], [ -63.23922, -17.57233 ], [ -63.23933, -17.57207 ], [ -63.23938, -17.57183 ] ] ] } },
{ "type": "Feature", "properties": { "i": 31 }, "geometry": { "type": "Polygon", "coordinates": [ [ [ -63.2326, -17.57411 ], [ -63.23254, -17.57357 ], [ -63.23234, -17.57263 ], [ -63.23231, -17.57261 ], [ -63.23182, -17.57267 ], [ -63.23165, -17.57267 ], [ -63.23119, -17.57258 ], [ -63.23142, -17.57395 ], [ -63.23142, -17.57462 ], [ -63.23262, -17.57454 ], [ -63.2326, -17.57411 ] ] ] } },
{ "type": "Feature", "properties": { "i": 32 }, "geometry": { "type": "Polygon", "coordinates": [ [ [ -63.23527, -17.57155 ], [ -63.23507, -17.57017 ], [ -63.23474, -17.57017 ], [ -63.23403, -17.57025 ], [ -63.23297, -17.57032 ], [ -63.23232, -17.57033 ], [ -63.23232, -17.57049 ], [ -63.23224, -17.57091 ], [ -63.23233, -17.57201 ], [ -63.23243, -17.57254 ], [ -63.23265, -17.5735 ], [ -63.23268, -17.57354 ], [ -63.23276, -17.57356 ], [ -63.23419, -17.57348 ], [ -63.23423, -17.57344 ], [ -63.2341, -17.57187 ], [ -63.23419, -17.57177 ], [ -63.2352, -17.57168 ], [ -63.23525, -17.57164 ], [ -63.23527, -17.57155 ] ] ] } },
{ "type": "Feature", "properties": { "i": 33 }, "geometry": { "type": "Polygon", "coordinates": [ [ [ -63.23185, -17.5726 ], [ -63.23231, -17.57252 ], [ -63.2322, -17.57212 ], [ -63.23217, -17.5711 ], [ -63.23217, -17.57076 ], [ -63.23223, -17.57068 ], [ -63.23227, -17.57042 ], [ -63.23177, -17.57009 ], [ -63.23156, -17.56988 ], [ -63.23093, -17.57003 ], [ -63.23058, -17.57023 ], [ -63.23053, -17.57024 ], [ -63.23019, -17.57025 ], [ -63.22982, -17.57023 ], [ -63.22929, -17.57028 ], [ -63.22803, -17.57049 ], [ -63.22801, -17.57057 ], [ -63.2282, -17.57114 ], [ -63.22826, -17.57161 ], [ -63.22824, -17.57162 ], [ -63.22817, -17.57115 ], [ -63.228, -17.57064 ], [ -63.22796, -17.57065 ], [ -63.22777, -17.57092 ], [ -63.22777, -17.57105 ], [ -63.22785, -17.57146 ], [ -63.2281, -17.57238 ], [ -63.22811, -17.5727 ], [ -63.22817, -17.5729 ], [ -63.22824, -17.57303 ], [ -63.22837, -17.57319 ], [ -63.23112, -17.57224 ], [ -63.23117, -17.5725 ], [ -63.23185, -17.5726 ] ] ] } },
{ "type": "Feature", "properties": { "i": 34 }, "geometry": { "type": "Polygon", "coordinates": [ [ [ -63.23798, -17.56871 ], [ -63.2375, -17.56959 ], [ -63.23646, -17.56867 ], [ -63.23633, -17.56899 ], [ -63.2356, -17.56912 ], [ -63.23518, -17.57007 ], [ -63.2352, -17.57009 ], [ -63.23574, -17.57017 ], [ -63.23627, -17.57034 ], [ -63.23662, -17.57054 ], [ -63.23686, -17.57071 ], [ -63.23741, -17.57125 ], [ -63.23766, -17.57144 ], [ -63.23786, -17.57156 ], [ -63.23827, -17.5717 ], [ -63.23863, -17.57179 ], [ -63.23886, -17.57181 ], [ -63.23905, -17.5718 ], [ -63.23923, -17.57175 ], [ -63.24022, -17.57132 ], [ -63.24033, -17.57122 ], [ -63.24044, -17.57092 ], [ -63.24047, -17.57051 ], [ -63.24079, -17.56988 ], [ -63.24121, -17.56887 ], [ -63.24157, -17.56776 ], [ -63.23977, -17.56722 ], [ -63.23919, -17.56859 ], [ -63.23842, -17.56878 ], [ -63.23798, -17.56871 ] ] ] } },
{ "type": "Feature", "properties": { "i": 35 }, "geometry": { "type": "Polygon", "coordinates": [ [ [ -63.24392, -17.56634 ], [ -63.24329, -17.56453 ], [ -63.24309, -17.56456 ], [ -63.24293, -17.56468 ], [ -63.24255, -17.56572 ], [ -63.24222, -17.56672 ], [ -63.24112, -17.56957 ], [ -63.24056, -17.57047 ], [ -63.24053, -17.5709 ], [ -63.24048, -17.57106 ], [ -63.24043, -17.57114 ], [ -63.24046, -17.57119 ], [ -63.24139, -17.57077 ], [ -63.24168, -17.57075 ], [ -63.24241, -17.57021 ], [ -63.2435, -17.56906 ], [ -63.24356, -17.56911 ], [ -63.24241, -17.57033 ], [ -63.24188, -17.57074 ], [ -63.24188, -17.57076 ], [ -63.24243, -17.57079 ], [ -63.24316, -17.57079 ], [ -63.24344, -17.57076 ], [ -63.24372, -17.5707 ], [ -63.24395, -17.57063 ], [ -63.24584, -17.56977 ], [ -63.24524, -17.56663 ], [ -63.24392, -17.56634 ] ] ] } },
{ "type": "Feature", "properties": { "i": 36 }, "geometry": { "type": "Polygon", "coordinates": [ [ [ -63.2351, -17.57007 ], [ -63.23513, -17.57005 ], [ -63.23552, -17.56916 ], [ -63.2355, -17.56913 ], [ -63.23483, -17.56926 ], [ -63.23388, -17.56923 ], [ -63.23375, -17.57017 ], [ -63.23463, -17.57009 ], [ -63.23485, -17.56944 ], [ -63.23487, -17.56945 ], [ -63.23467, -17.57008 ], [ -63.2351, -17.57007 ] ] ] } },
{ "type": "Feature", "properties": { "i": 37 }, "geometry": { "type": "Polygon", "coordinates": [ [ [ -63.23324, -17.57021 ], [ -63.23362, -17.57018 ], [ -63.23367, -17.57015 ], [ -63.23381, -17.56923 ], [ -63.23265, -17.56913 ], [ -63.2327, -17.56879 ], [ -63.23221, -17.56874 ], [ -63.23205, -17.57003 ], [ -63.23202, -17.57011 ], [ -63.23228, -17.57022 ], [ -63.23324, -17.57021 ] ] ] } },
{ "type": "Feature", "properties": { "i": 38 }, "geometry": { "type": "Polygon", "coordinates": [ [ [ -63.23199, -17.56988 ], [ -63.23209, -17.56906 ], [ -63.23207, -17.56902 ], [ -63.23132, -17.56905 ], [ -63.23131, -17.56907 ], [ -63.2317, -17.56988 ], [ -63.23176, -17.56991 ], [ -63.23194, -17.56992 ], [ -63.23199, -17.56988 ] ] ] } },
{ "type": "Feature", "properties": { "i": 39 }, "geometry": { "type": "Polygon", "coordinates": [ [ [ -63.22781, -17.56991 ], [ -63.22775, -17.56995 ], [ -63.22775, -17.56998 ], [ -63.22794, -17.57039 ], [ -63.22799, -17.57042 ], [ -63.2291, -17.57021 ], [ -63.22915, -17.57019 ], [ -63.22917, -17.57015 ], [ -63.22912, -17.56984 ], [ -63.22906, -17.5698 ], [ -63.22837, -17.56981 ], [ -63.22781, -17.56991 ] ] ] } },
{ "type": "Feature", "properties": { "i": 40 }, "geometry": { "type": "Polygon", "coordinates": [ [ [ -63.23075, -17.57004 ], [ -63.23076, -17.56993 ], [ -63.23043, -17.56969 ], [ -63.22936, -17.56918 ], [ -63.22917, -17.56918 ], [ -63.22915, -17.5698 ], [ -63.2292, -17.56987 ], [ -63.22923, -17.57012 ], [ -63.22927, -17.57016 ], [ -63.23044, -17.57015 ], [ -63.23063, -17.57012 ], [ -63.23075, -17.57004 ] ] ] } },
{ "type": "Feature", "properties": { "i": 41 }, "geometry": { "type": "Polygon", "coordinates": [ [ [ -63.22672, -17.56782 ], [ -63.22656, -17.56772 ], [ -63.22626, -17.56783 ], [ -63.22552, -17.5675 ], [ -63.22596, -17.56694 ], [ -63.22506, -17.56655 ], [ -63.22491, -17.56703 ], [ -63.22495, -17.56713 ], [ -63.22462, -17.56763 ], [ -63.22431, -17.56745 ], [ -63.2242, -17.56704 ], [ -63.2231, -17.56701 ], [ -63.22284, -17.56762 ], [ -63.22011, -17.56732 ], [ -63.22002, -17.56737 ], [ -63.2198, -17.56783 ], [ -63.21975, -17.56906 ], [ -63.22136, -17.56938 ], [ -63.2223, -17.56964 ], [ -63.22266, -17.57032 ], [ -63.22216, -17.57097 ], [ -63.22215, -17.57107 ], [ -63.22218, -17.57113 ], [ -63.22226, -17.57118 ], [ -63.2223, -17.57118 ], [ -63.22243, -17.57111 ], [ -63.22253, -17.57128 ], [ -63.22287, -17.57113 ], [ -63.22312, -17.57166 ], [ -63.22294, -17.57217 ], [ -63.22296, -17.57247 ], [ -63.22324, -17.57283 ], [ -63.22397, -17.57296 ], [ -63.22544, -17.57432 ], [ -63.22575, -17.57451 ], [ -63.22612, -17.57256 ], [ -63.22612, -17.57194 ], [ -63.22662, -17.57032 ], [ -63.22673, -17.57017 ], [ -63.22703, -17.57006 ], [ -63.22745, -17.57022 ], [ -63.22764, -17.57015 ], [ -63.22761, -17.56991 ], [ -63.22768, -17.56933 ], [ -63.22702, -17.56863 ], [ -63.22657, -17.56837 ], [ -63.22647, -17.56857 ], [ -63.2266, -17.56863 ], [ -63.22651, -17.56877 ], [ -63.22642, -17.56872 ], [ -63.22635, -17.56884 ], [ -63.22631, -17.56882 ], [ -63.22663, -17.56797 ], [ -63.22672, -17.56782 ] ] ] } },
{ "type": "Feature", "properties": { "i": 42 }, "geometry": { "type": "Polygon", "coordinates": [ [ [ -63.23151, -17.56981 ], [ -63.23152, -17.56975 ], [ -63.23105, -17.56876 ], [ -63.2307, -17.56875 ], [ -63.23048, -17.56868 ], [ -63.2302, -17.56946 ], [ -63.23021, -17.56949 ], [ -63.23051, -17.56963 ], [ -63.23085, -17.5699 ], [ -63.23099, -17.56992 ], [ -63.23151, -17.56981 ] ] ] } },
{ "type": "Feature", "properties": { "i": 43 }, "geometry": { "type": "Polygon", "coordinates": [ [ [ -63.22783, -17.56929 ], [ -63.22777, -17.56934 ], [ -63.22771, -17.56979 ], [ -63.22773, -17.56982 ], [ -63.22799, -17.56981 ], [ -63.22824, -17.56976 ], [ -63.22906, -17.56975 ], [ -63.22909, -17.56972 ], [ -63.2291, -17.56923 ], [ -63.22907, -17.56919 ], [ -63.22835, -17.56927 ], [ -63.22783, -17.56929 ] ] ] } },
{ "type": "Feature", "properties": { "i": 44 }, "geometry": { "type": "Polygon", "coordinates": [ [ [ -63.24197, -17.56425 ], [ -63.24186, -17.56418 ], [ -63.24072, -17.56431 ], [ -63.24093, -17.56626 ], [ -63.24215, -17.56623 ], [ -63.24231, -17.56591 ], [ -63.24237, -17.56567 ], [ -63.24238, -17.56531 ], [ -63.24235, -17.56517 ], [ -63.24197, -17.56425 ] ] ] } },
{ "type": "Feature", "properties": { "i": 45 }, "geometry": { "type": "Polygon", "coordinates": [ [ [ -63.23306, -17.56859 ], [ -63.23305, -17.56837 ], [ -63.23224, -17.56834 ], [ -63.23221, -17.56837 ], [ -63.2322, -17.56869 ], [ -63.23222, -17.56872 ], [ -63.2329, -17.56876 ], [ -63.23292, -17.56858 ], [ -63.23306, -17.56859 ] ] ] } },
{ "type": "Feature", "properties": { "i": 46 }, "geometry": { "type": "Polygon", "coordinates": [ [ [ -63.23128, -17.56898 ], [ -63.232, -17.56895 ], [ -63.23204, -17.56893 ], [ -63.23206, -17.5689 ], [ -63.23212, -17.56819 ], [ -63.23123, -17.56815 ], [ -63.23111, -17.5685 ], [ -63.23111, -17.56866 ], [ -63.23114, -17.56879 ], [ -63.23123, -17.56896 ], [ -63.23128, -17.56898 ] ] ] } },
{ "type": "Feature", "properties": { "i": 47 }, "geometry": { "type": "Polygon", "coordinates": [ [ [ -63.23016, -17.56942 ], [ -63.23042, -17.56869 ], [ -63.2304, -17.56864 ], [ -63.2301, -17.5686 ], [ -63.22927, -17.56865 ], [ -63.22923, -17.56868 ], [ -63.22918, -17.56902 ], [ -63.22921, -17.56907 ], [ -63.22925, -17.56909 ], [ -63.22948, -17.56909 ], [ -63.22973, -17.56927 ], [ -63.2301, -17.56944 ], [ -63.23016, -17.56942 ] ] ] } },
{ "type": "Feature", "properties": { "i": 48 }, "geometry": { "type": "Polygon", "coordinates": [ [ [ -63.23324, -17.56837 ], [ -63.23315, -17.56838 ], [ -63.23314, -17.56855 ], [ -63.23383, -17.5686 ], [ -63.234, -17.56737 ], [ -63.23336, -17.56741 ], [ -63.23333, -17.56743 ], [ -63.23324, -17.56837 ] ] ] } },
{ "type": "Feature", "properties": { "i": 49 }, "geometry": { "type": "Polygon", "coordinates": [ [ [ -63.23089, -17.56867 ], [ -63.23095, -17.56865 ], [ -63.23097, -17.56834 ], [ -63.23102, -17.56816 ], [ -63.23026, -17.5681 ], [ -63.2302, -17.56811 ], [ -63.23013, -17.56844 ], [ -63.23016, -17.56851 ], [ -63.23066, -17.56867 ], [ -63.23089, -17.56867 ] ] ] } },
{ "type": "Feature", "properties": { "i": 50 }, "geometry": { "type": "Polygon", "coordinates": [ [ [ -63.22907, -17.56912 ], [ -63.22911, -17.56907 ], [ -63.22915, -17.56868 ], [ -63.22913, -17.56863 ], [ -63.22854, -17.56851 ], [ -63.22805, -17.56829 ], [ -63.22796, -17.56822 ], [ -63.22791, -17.56823 ], [ -63.22768, -17.56915 ], [ -63.22769, -17.5692 ], [ -63.22775, -17.56922 ], [ -63.2286, -17.56918 ], [ -63.22907, -17.56912 ] ] ] } },
{ "type": "Feature", "properties": { "i": 51 }, "geometry": { "type": "Polygon", "coordinates": [ [ [ -63.23228, -17.56826 ], [ -63.2331, -17.56829 ], [ -63.23315, -17.56827 ], [ -63.23317, -17.56824 ], [ -63.23325, -17.5675 ], [ -63.23249, -17.56745 ], [ -63.2324, -17.56745 ], [ -63.23235, -17.56748 ], [ -63.23224, -17.56817 ], [ -63.23224, -17.56821 ], [ -63.23228, -17.56826 ] ] ] } },
{ "type": "Feature", "properties": { "i": 52 }, "geometry": { "type": "Polygon", "coordinates": [ [ [ -63.23009, -17.56811 ], [ -63.22933, -17.56821 ], [ -63.22928, -17.56852 ], [ -63.22929, -17.56856 ], [ -63.22934, -17.56858 ], [ -63.23002, -17.56852 ], [ -63.23004, -17.56849 ], [ -63.23009, -17.56811 ] ] ] } },
{ "type": "Feature", "properties": { "i": 53 }, "geometry": { "type": "Polygon", "coordinates": [ [ [ -63.22922, -17.56852 ], [ -63.22929, -17.56825 ], [ -63.22928, -17.56822 ], [ -63.2285, -17.56835 ], [ -63.22852, -17.5684 ], [ -63.22916, -17.56854 ], [ -63.22922, -17.56852 ] ] ] } },
{ "type": "Feature", "properties": { "i": 54 }, "geometry": { "type": "Polygon", "coordinates": [ [ [ -63.23215, -17.56813 ], [ -63.23222, -17.56746 ], [ -63.23218, -17.56743 ], [ -63.23147, -17.56733 ], [ -63.23145, -17.56766 ], [ -63.23125, -17.56809 ], [ -63.23171, -17.56814 ], [ -63.23212, -17.56814 ], [ -63.23215, -17.56813 ] ] ] } },
{ "type": "Feature", "properties": { "i": 55 }, "geometry": { "type": "Polygon", "coordinates": [ [ [ -63.22743, -17.56868 ], [ -63.22747, -17.56868 ], [ -63.2275, -17.56865 ], [ -63.22774, -17.56813 ], [ -63.22768, -17.56797 ], [ -63.22751, -17.56791 ], [ -63.22688, -17.56823 ], [ -63.22666, -17.56818 ], [ -63.22661, -17.56819 ], [ -63.22656, -17.5683 ], [ -63.22658, -17.56834 ], [ -63.22743, -17.56868 ] ] ] } },
{ "type": "Feature", "properties": { "i": 56 }, "geometry": { "type": "Polygon", "coordinates": [ [ [ -63.23025, -17.56754 ], [ -63.22967, -17.5675 ], [ -63.22964, -17.56753 ], [ -63.22951, -17.56808 ], [ -63.22952, -17.56811 ], [ -63.23007, -17.56803 ], [ -63.23026, -17.56758 ], [ -63.23025, -17.56754 ] ] ] } },
{ "type": "Feature", "properties": { "i": 57 }, "geometry": { "type": "Polygon", "coordinates": [ [ [ -63.23135, -17.56729 ], [ -63.2307, -17.56703 ], [ -63.23064, -17.56704 ], [ -63.23018, -17.56795 ], [ -63.23019, -17.56801 ], [ -63.23111, -17.56805 ], [ -63.23129, -17.56773 ], [ -63.23139, -17.56746 ], [ -63.23139, -17.56736 ], [ -63.23135, -17.56729 ] ] ] } },
{ "type": "Feature", "properties": { "i": 58 }, "geometry": { "type": "Polygon", "coordinates": [ [ [ -63.2279, -17.56728 ], [ -63.22785, -17.56729 ], [ -63.22768, -17.56766 ], [ -63.22774, -17.56787 ], [ -63.22783, -17.56799 ], [ -63.22832, -17.56825 ], [ -63.2294, -17.56814 ], [ -63.22945, -17.56811 ], [ -63.22959, -17.56754 ], [ -63.22958, -17.56751 ], [ -63.22818, -17.56738 ], [ -63.2279, -17.56728 ] ] ] } },
{ "type": "Feature", "properties": { "i": 59 }, "geometry": { "type": "Polygon", "coordinates": [ [ [ -63.23072, -17.56693 ], [ -63.23139, -17.56717 ], [ -63.23146, -17.56715 ], [ -63.23154, -17.56687 ], [ -63.23157, -17.56689 ], [ -63.23148, -17.56717 ], [ -63.2315, -17.5672 ], [ -63.23209, -17.5673 ], [ -63.23237, -17.56663 ], [ -63.23235, -17.56659 ], [ -63.23185, -17.56635 ], [ -63.2315, -17.56627 ], [ -63.23101, -17.5662 ], [ -63.23098, -17.56622 ], [ -63.2307, -17.56687 ], [ -63.23072, -17.56693 ] ] ] } },
{ "type": "Feature", "properties": { "i": 60 }, "geometry": { "type": "Polygon", "coordinates": [ [ [ -63.22681, -17.56815 ], [ -63.2275, -17.56786 ], [ -63.22773, -17.56726 ], [ -63.22704, -17.56696 ], [ -63.22691, -17.56721 ], [ -63.22705, -17.56727 ], [ -63.22667, -17.56805 ], [ -63.22668, -17.5681 ], [ -63.22681, -17.56815 ] ] ] } },
{ "type": "Feature", "properties": { "i": 61 }, "geometry": { "type": "Polygon", "coordinates": [ [ [ -63.23033, -17.56745 ], [ -63.23055, -17.56704 ], [ -63.23054, -17.56699 ], [ -63.22975, -17.56672 ], [ -63.2292, -17.56656 ], [ -63.22905, -17.56654 ], [ -63.22889, -17.56656 ], [ -63.22886, -17.56679 ], [ -63.22873, -17.56726 ], [ -63.22875, -17.5673 ], [ -63.22916, -17.56741 ], [ -63.23028, -17.56748 ], [ -63.23033, -17.56745 ] ] ] } },
{ "type": "Feature", "properties": { "i": 62 }, "geometry": { "type": "Polygon", "coordinates": [ [ [ -63.23571, -17.56641 ], [ -63.23507, -17.5672 ], [ -63.23298, -17.56737 ], [ -63.23289, -17.56737 ], [ -63.23287, -17.56735 ], [ -63.23349, -17.56658 ], [ -63.23533, -17.56612 ], [ -63.23532, -17.56603 ], [ -63.23344, -17.56648 ], [ -63.2331, -17.56687 ], [ -63.23301, -17.56704 ], [ -63.23299, -17.56706 ], [ -63.23293, -17.56706 ], [ -63.23277, -17.56737 ], [ -63.23222, -17.56733 ], [ -63.2322, -17.56731 ], [ -63.23249, -17.56651 ], [ -63.23306, -17.56508 ], [ -63.23316, -17.56503 ], [ -63.2356, -17.56482 ], [ -63.23571, -17.56641 ] ] ] } },
{ "type": "Feature", "properties": { "i": 63 }, "geometry": { "type": "Polygon", "coordinates": [ [ [ -63.22858, -17.56731 ], [ -63.22863, -17.56729 ], [ -63.22879, -17.56675 ], [ -63.22882, -17.56662 ], [ -63.22881, -17.56658 ], [ -63.22812, -17.56665 ], [ -63.22808, -17.56669 ], [ -63.22798, -17.567 ], [ -63.22832, -17.56701 ], [ -63.22827, -17.56726 ], [ -63.22858, -17.56731 ] ] ] } },
{ "type": "Feature", "properties": { "i": 64 }, "geometry": { "type": "Polygon", "coordinates": [ [ [ -63.23035, -17.56595 ], [ -63.23003, -17.5667 ], [ -63.23059, -17.56688 ], [ -63.23089, -17.56616 ], [ -63.23038, -17.56594 ], [ -63.23035, -17.56595 ] ] ] } },
{ "type": "Feature", "properties": { "i": 65 }, "geometry": { "type": "Polygon", "coordinates": [ [ [ -63.23195, -17.56562 ], [ -63.23171, -17.56622 ], [ -63.23241, -17.56652 ], [ -63.23265, -17.5659 ], [ -63.23265, -17.56584 ], [ -63.23201, -17.5656 ], [ -63.23195, -17.56562 ] ] ] } },
{ "type": "Feature", "properties": { "i": 66 }, "geometry": { "type": "Polygon", "coordinates": [ [ [ -63.23668, -17.56519 ], [ -63.23663, -17.56479 ], [ -63.23572, -17.56484 ], [ -63.23576, -17.56526 ], [ -63.23668, -17.56519 ] ] ] } },
{ "type": "Feature", "properties": { "i": 67 }, "geometry": { "type": "Polygon", "coordinates": [ [ [ -63.22774, -17.5672 ], [ -63.22778, -17.5672 ], [ -63.22783, -17.5671 ], [ -63.22783, -17.56705 ], [ -63.22774, -17.56668 ], [ -63.22711, -17.56634 ], [ -63.22706, -17.56634 ], [ -63.22681, -17.56675 ], [ -63.22774, -17.5672 ] ] ] } },
{ "type": "Feature", "properties": { "i": 68 }, "geometry": { "type": "Polygon", "coordinates": [ [ [ -63.22998, -17.56665 ], [ -63.2303, -17.56593 ], [ -63.23026, -17.56589 ], [ -63.22977, -17.56569 ], [ -63.22974, -17.56571 ], [ -63.22934, -17.56647 ], [ -63.22993, -17.56668 ], [ -63.22998, -17.56665 ] ] ] } },
{ "type": "Feature", "properties": { "i": 69 }, "geometry": { "type": "Polygon", "coordinates": [ [ [ -63.22883, -17.56616 ], [ -63.2288, -17.56613 ], [ -63.22824, -17.56615 ], [ -63.22824, -17.56619 ], [ -63.22769, -17.56624 ], [ -63.22754, -17.56629 ], [ -63.22747, -17.56634 ], [ -63.22781, -17.5665 ], [ -63.2288, -17.56646 ], [ -63.22884, -17.56644 ], [ -63.22883, -17.56616 ] ] ] } },
{ "type": "Feature", "properties": { "i": 70 }, "geometry": { "type": "Polygon", "coordinates": [ [ [ -63.23293, -17.56509 ], [ -63.23223, -17.5651 ], [ -63.23219, -17.56513 ], [ -63.23204, -17.56551 ], [ -63.2327, -17.56575 ], [ -63.23272, -17.56574 ], [ -63.23293, -17.56509 ] ] ] } },
{ "type": "Feature", "properties": { "i": 71 }, "geometry": { "type": "Polygon", "coordinates": [ [ [ -63.24182, -17.56413 ], [ -63.24183, -17.56408 ], [ -63.24173, -17.56383 ], [ -63.24042, -17.56397 ], [ -63.23983, -17.56399 ], [ -63.2391, -17.5641 ], [ -63.23823, -17.56414 ], [ -63.23743, -17.56429 ], [ -63.23649, -17.56432 ], [ -63.23587, -17.56439 ], [ -63.23465, -17.56446 ], [ -63.23266, -17.56463 ], [ -63.2301, -17.56477 ], [ -63.23003, -17.56504 ], [ -63.2301, -17.56507 ], [ -63.23256, -17.56499 ], [ -63.23753, -17.56459 ], [ -63.23832, -17.56448 ], [ -63.24182, -17.56413 ] ] ] } },
{ "type": "Feature", "properties": { "i": 72 }, "geometry": { "type": "Polygon", "coordinates": [ [ [ -63.23004, -17.56515 ], [ -63.23, -17.56517 ], [ -63.2298, -17.56559 ], [ -63.23091, -17.56609 ], [ -63.23164, -17.56621 ], [ -63.23208, -17.56511 ], [ -63.23203, -17.56509 ], [ -63.23004, -17.56515 ] ] ] } },
{ "type": "Feature", "properties": { "i": 73 }, "geometry": { "type": "Polygon", "coordinates": [ [ [ -63.227, -17.56625 ], [ -63.22641, -17.56596 ], [ -63.22639, -17.56598 ], [ -63.22607, -17.56653 ], [ -63.22607, -17.56667 ], [ -63.22612, -17.56678 ], [ -63.22618, -17.56681 ], [ -63.22664, -17.56684 ], [ -63.2267, -17.5668 ], [ -63.227, -17.56628 ], [ -63.227, -17.56625 ] ] ] } },
{ "type": "Feature", "properties": { "i": 74 }, "geometry": { "type": "Polygon", "coordinates": [ [ [ -63.22429, -17.56676 ], [ -63.2247, -17.56695 ], [ -63.22484, -17.56662 ], [ -63.22437, -17.56639 ], [ -63.22428, -17.56656 ], [ -63.2243, -17.56657 ], [ -63.22429, -17.56676 ] ] ] } },
{ "type": "Feature", "properties": { "i": 75 }, "geometry": { "type": "Polygon", "coordinates": [ [ [ -63.22383, -17.56694 ], [ -63.22418, -17.56694 ], [ -63.22403, -17.56659 ], [ -63.22382, -17.56659 ], [ -63.2238, -17.56692 ], [ -63.22383, -17.56694 ] ] ] } },
{ "type": "Feature", "properties": { "i": 76 }, "geometry": { "type": "Polygon", "coordinates": [ [ [ -63.22746, -17.56622 ], [ -63.22764, -17.56597 ], [ -63.22762, -17.56595 ], [ -63.22721, -17.56575 ], [ -63.22704, -17.56607 ], [ -63.22738, -17.56624 ], [ -63.22742, -17.56624 ], [ -63.22746, -17.56622 ] ] ] } },
{ "type": "Feature", "properties": { "i": 77 }, "geometry": { "type": "Polygon", "coordinates": [ [ [ -63.22511, -17.56651 ], [ -63.22577, -17.5668 ], [ -63.22628, -17.56594 ], [ -63.22628, -17.56589 ], [ -63.22544, -17.5655 ], [ -63.2254, -17.5655 ], [ -63.22514, -17.56634 ], [ -63.22511, -17.56651 ] ] ] } },
{ "type": "Feature", "properties": { "i": 78 }, "geometry": { "type": "Polygon", "coordinates": [ [ [ -63.22473, -17.56625 ], [ -63.22464, -17.5664 ], [ -63.22486, -17.56651 ], [ -63.22494, -17.56635 ], [ -63.22473, -17.56625 ] ] ] } },
{ "type": "Feature", "properties": { "i": 79 }, "geometry": { "type": "Polygon", "coordinates": [ [ [ -63.22377, -17.56664 ], [ -63.22368, -17.56663 ], [ -63.22363, -17.56655 ], [ -63.22395, -17.5664 ], [ -63.22363, -17.56576 ], [ -63.22355, -17.56577 ], [ -63.2232, -17.56657 ], [ -63.22319, -17.5668 ], [ -63.22325, -17.56691 ], [ -63.22375, -17.56693 ], [ -63.22377, -17.56664 ] ] ] } },
{ "type": "Feature", "properties": { "i": 80 }, "geometry": { "type": "Polygon", "coordinates": [ [ [ -63.22999, -17.56467 ], [ -63.22965, -17.56468 ], [ -63.22931, -17.56481 ], [ -63.22893, -17.56559 ], [ -63.22735, -17.56491 ], [ -63.22708, -17.56542 ], [ -63.22749, -17.56578 ], [ -63.22782, -17.56594 ], [ -63.2278, -17.56614 ], [ -63.22783, -17.56616 ], [ -63.2281, -17.56615 ], [ -63.22815, -17.56608 ], [ -63.22874, -17.56605 ], [ -63.22889, -17.5661 ], [ -63.2289, -17.56641 ], [ -63.22928, -17.56641 ], [ -63.22967, -17.56565 ], [ -63.22942, -17.56559 ], [ -63.22936, -17.56549 ], [ -63.22931, -17.56546 ], [ -63.22934, -17.5654 ], [ -63.22938, -17.56541 ], [ -63.22942, -17.56532 ], [ -63.22946, -17.56533 ], [ -63.22941, -17.56545 ], [ -63.22943, -17.56552 ], [ -63.2297, -17.56557 ], [ -63.22991, -17.56516 ], [ -63.23003, -17.56475 ], [ -63.22999, -17.56467 ] ] ] } },
{ "type": "Feature", "properties": { "i": 81 }, "geometry": { "type": "Polygon", "coordinates": [ [ [ -63.223, -17.56686 ], [ -63.22351, -17.56566 ], [ -63.22334, -17.56562 ], [ -63.22318, -17.56562 ], [ -63.2229, -17.5657 ], [ -63.22287, -17.56572 ], [ -63.2228, -17.56597 ], [ -63.22254, -17.56589 ], [ -63.2223, -17.56588 ], [ -63.22096, -17.56537 ], [ -63.22089, -17.56537 ], [ -63.22061, -17.56544 ], [ -63.22031, -17.56544 ], [ -63.22019, -17.56551 ], [ -63.22015, -17.5656 ], [ -63.21997, -17.5668 ], [ -63.22009, -17.56724 ], [ -63.22013, -17.56728 ], [ -63.22162, -17.56745 ], [ -63.22177, -17.56677 ], [ -63.2221, -17.56644 ], [ -63.22229, -17.56662 ], [ -63.223, -17.56686 ] ] ] } },
{ "type": "Feature", "properties": { "i": 82 }, "geometry": { "type": "Polygon", "coordinates": [ [ [ -63.2163, -17.56767 ], [ -63.21714, -17.56889 ], [ -63.2172, -17.5689 ], [ -63.2173, -17.56837 ], [ -63.21862, -17.56592 ], [ -63.21595, -17.56544 ], [ -63.21568, -17.56765 ], [ -63.2163, -17.56767 ] ] ] } },
{ "type": "Feature", "properties": { "i": 83 }, "geometry": { "type": "Polygon", "coordinates": [ [ [ -63.22506, -17.56525 ], [ -63.22469, -17.5651 ], [ -63.22465, -17.56511 ], [ -63.22468, -17.56621 ], [ -63.225, -17.56621 ], [ -63.22508, -17.56533 ], [ -63.22506, -17.56525 ] ] ] } },
{ "type": "Feature", "properties": { "i": 84 }, "geometry": { "type": "Polygon", "coordinates": [ [ [ -63.2246, -17.56509 ], [ -63.22456, -17.56505 ], [ -63.22431, -17.56496 ], [ -63.22427, -17.56497 ], [ -63.22425, -17.565 ], [ -63.22427, -17.56627 ], [ -63.22431, -17.5663 ], [ -63.2246, -17.56629 ], [ -63.22462, -17.56627 ], [ -63.2246, -17.56509 ] ] ] } },
{ "type": "Feature", "properties": { "i": 85 }, "geometry": { "type": "Polygon", "coordinates": [ [ [ -63.22414, -17.56641 ], [ -63.22424, -17.56637 ], [ -63.2242, -17.56494 ], [ -63.22393, -17.56484 ], [ -63.22387, -17.56488 ], [ -63.22388, -17.5659 ], [ -63.22414, -17.56641 ] ] ] } },
{ "type": "Feature", "properties": { "i": 86 }, "geometry": { "type": "Polygon", "coordinates": [ [ [ -63.22275, -17.56566 ], [ -63.22213, -17.56542 ], [ -63.22204, -17.56569 ], [ -63.22232, -17.56579 ], [ -63.22248, -17.56581 ], [ -63.22273, -17.56573 ], [ -63.22275, -17.56566 ] ] ] } },
{ "type": "Feature", "properties": { "i": 87 }, "geometry": { "type": "Polygon", "coordinates": [ [ [ -63.22271, -17.56527 ], [ -63.22262, -17.56551 ], [ -63.22263, -17.56554 ], [ -63.22278, -17.56559 ], [ -63.22291, -17.5656 ], [ -63.22293, -17.56558 ], [ -63.22294, -17.56529 ], [ -63.22275, -17.56525 ], [ -63.22271, -17.56527 ] ] ] } },
{ "type": "Feature", "properties": { "i": 88 }, "geometry": { "type": "Polygon", "coordinates": [ [ [ -63.23112, -17.56459 ], [ -63.23125, -17.56427 ], [ -63.22995, -17.56376 ], [ -63.22972, -17.56431 ], [ -63.23069, -17.5646 ], [ -63.23112, -17.56459 ] ] ] } },
{ "type": "Feature", "properties": { "i": 89 }, "geometry": { "type": "Polygon", "coordinates": [ [ [ -63.22381, -17.56479 ], [ -63.22338, -17.56478 ], [ -63.22338, -17.56484 ], [ -63.22346, -17.56522 ], [ -63.22362, -17.56556 ], [ -63.2238, -17.56582 ], [ -63.22383, -17.56583 ], [ -63.22383, -17.56481 ], [ -63.22381, -17.56479 ] ] ] } },
{ "type": "Feature", "properties": { "i": 90 }, "geometry": { "type": "Polygon", "coordinates": [ [ [ -63.22208, -17.56543 ], [ -63.22207, -17.56539 ], [ -63.2219, -17.56534 ], [ -63.22181, -17.5656 ], [ -63.22198, -17.56565 ], [ -63.22208, -17.56543 ] ] ] } },
{ "type": "Feature", "properties": { "i": 91 }, "geometry": { "type": "Polygon", "coordinates": [ [ [ -63.22577, -17.56342 ], [ -63.2257, -17.56403 ], [ -63.22595, -17.56406 ], [ -63.22629, -17.56401 ], [ -63.22631, -17.56413 ], [ -63.22622, -17.56416 ], [ -63.22622, -17.56425 ], [ -63.22604, -17.56425 ], [ -63.22602, -17.56414 ], [ -63.22567, -17.56408 ], [ -63.22564, -17.56435 ], [ -63.22554, -17.56434 ], [ -63.22551, -17.56436 ], [ -63.22545, -17.56496 ], [ -63.2256, -17.56499 ], [ -63.22551, -17.56531 ], [ -63.22553, -17.56534 ], [ -63.22688, -17.566 ], [ -63.22694, -17.56599 ], [ -63.22709, -17.56574 ], [ -63.22689, -17.56562 ], [ -63.22728, -17.56489 ], [ -63.22664, -17.56463 ], [ -63.22664, -17.56458 ], [ -63.22677, -17.56421 ], [ -63.22639, -17.5641 ], [ -63.22658, -17.56348 ], [ -63.22577, -17.56342 ] ] ] } },
{ "type": "Feature", "properties": { "i": 92 }, "geometry": { "type": "Polygon", "coordinates": [ [ [ -63.22335, -17.56522 ], [ -63.22322, -17.56478 ], [ -63.22302, -17.56479 ], [ -63.223, -17.56552 ], [ -63.22302, -17.56554 ], [ -63.22345, -17.56555 ], [ -63.22348, -17.5655 ], [ -63.22335, -17.56522 ] ] ] } },
{ "type": "Feature", "properties": { "i": 93 }, "geometry": { "type": "Polygon", "coordinates": [ [ [ -63.22265, -17.56524 ], [ -63.22262, -17.56521 ], [ -63.22226, -17.56508 ], [ -63.22216, -17.56535 ], [ -63.22254, -17.56549 ], [ -63.22257, -17.56547 ], [ -63.22265, -17.56524 ] ] ] } },
{ "type": "Feature", "properties": { "i": 94 }, "geometry": { "type": "Polygon", "coordinates": [ [ [ -63.22125, -17.56515 ], [ -63.22119, -17.56516 ], [ -63.22111, -17.56532 ], [ -63.22113, -17.56535 ], [ -63.22171, -17.56558 ], [ -63.22176, -17.56556 ], [ -63.22185, -17.56535 ], [ -63.22184, -17.56532 ], [ -63.22146, -17.56518 ], [ -63.22125, -17.56515 ] ] ] } },
{ "type": "Feature", "properties": { "i": 95 }, "geometry": { "type": "Polygon", "coordinates": [ [ [ -63.22517, -17.56499 ], [ -63.22522, -17.565 ], [ -63.22524, -17.56482 ], [ -63.22529, -17.56483 ], [ -63.22534, -17.5644 ], [ -63.22502, -17.56435 ], [ -63.22497, -17.56472 ], [ -63.22495, -17.56471 ], [ -63.22494, -17.56476 ], [ -63.2246, -17.56472 ], [ -63.22465, -17.56428 ], [ -63.22463, -17.56425 ], [ -63.22439, -17.56421 ], [ -63.22418, -17.56427 ], [ -63.22429, -17.5648 ], [ -63.22472, -17.56492 ], [ -63.22471, -17.56495 ], [ -63.22516, -17.56508 ], [ -63.22517, -17.56499 ] ] ] } },
{ "type": "Feature", "properties": { "i": 96 }, "geometry": { "type": "Polygon", "coordinates": [ [ [ -63.22491, -17.56432 ], [ -63.22471, -17.56429 ], [ -63.22468, -17.56458 ], [ -63.2248, -17.56459 ], [ -63.22481, -17.56449 ], [ -63.22489, -17.5645 ], [ -63.22491, -17.56432 ] ] ] } },
{ "type": "Feature", "properties": { "i": 97 }, "geometry": { "type": "Polygon", "coordinates": [ [ [ -63.22318, -17.56457 ], [ -63.22313, -17.56446 ], [ -63.22254, -17.56459 ], [ -63.22233, -17.56493 ], [ -63.22232, -17.56499 ], [ -63.22289, -17.56523 ], [ -63.22298, -17.56473 ], [ -63.22318, -17.56473 ], [ -63.22318, -17.56457 ] ] ] } },
{ "type": "Feature", "properties": { "i": 98 }, "geometry": { "type": "Polygon", "coordinates": [ [ [ -63.22389, -17.56472 ], [ -63.2241, -17.56477 ], [ -63.22418, -17.56476 ], [ -63.22407, -17.56429 ], [ -63.22378, -17.56438 ], [ -63.22389, -17.56472 ] ] ] } },
{ "type": "Feature", "properties": { "i": 99 }, "geometry": { "type": "Polygon", "coordinates": [ [ [ -63.22562, -17.56409 ], [ -63.2255, -17.56408 ], [ -63.22549, -17.56432 ], [ -63.2256, -17.56432 ], [ -63.22562, -17.56409 ] ] ] } },
{ "type": "Feature", "properties": { "i": 100 }, "geometry": { "type": "Polygon", "coordinates": [ [ [ -63.22513, -17.56427 ], [ -63.22535, -17.5643 ], [ -63.22538, -17.56405 ], [ -63.22515, -17.56402 ], [ -63.22511, -17.56425 ], [ -63.22513, -17.56427 ] ] ] } },
{ "type": "Feature", "properties": { "i": 101 }, "geometry": { "type": "Polygon", "coordinates": [ [ [ -63.22267, -17.56419 ], [ -63.22264, -17.56418 ], [ -63.22237, -17.56426 ], [ -63.2222, -17.56434 ], [ -63.22192, -17.56452 ], [ -63.22135, -17.565 ], [ -63.22131, -17.56506 ], [ -63.2218, -17.56524 ], [ -63.22185, -17.56524 ], [ -63.22188, -17.56521 ], [ -63.22193, -17.56501 ], [ -63.22179, -17.56496 ], [ -63.22181, -17.5649 ], [ -63.22198, -17.56496 ], [ -63.22191, -17.56525 ], [ -63.22193, -17.56528 ], [ -63.22209, -17.56534 ], [ -63.22212, -17.56532 ], [ -63.22223, -17.56499 ], [ -63.22236, -17.5647 ], [ -63.22247, -17.56456 ], [ -63.22271, -17.5645 ], [ -63.22267, -17.56419 ] ] ] } },
{ "type": "Feature", "properties": { "i": 102 }, "geometry": { "type": "Polygon", "coordinates": [ [ [ -63.22382, -17.56467 ], [ -63.22358, -17.56411 ], [ -63.22354, -17.5641 ], [ -63.22326, -17.56415 ], [ -63.22332, -17.56454 ], [ -63.22334, -17.56456 ], [ -63.2238, -17.5647 ], [ -63.22382, -17.56467 ] ] ] } },
{ "type": "Feature", "properties": { "i": 103 }, "geometry": { "type": "Polygon", "coordinates": [ [ [ -63.22501, -17.56399 ], [ -63.22476, -17.56397 ], [ -63.22473, -17.5642 ], [ -63.225, -17.56425 ], [ -63.22503, -17.56402 ], [ -63.22501, -17.56399 ] ] ] } },
{ "type": "Feature", "properties": { "i": 104 }, "geometry": { "type": "Polygon", "coordinates": [ [ [ -63.22555, -17.56371 ], [ -63.22552, -17.564 ], [ -63.22564, -17.56401 ], [ -63.22567, -17.56372 ], [ -63.22555, -17.56371 ] ] ] } },
{ "type": "Feature", "properties": { "i": 105 }, "geometry": { "type": "Polygon", "coordinates": [ [ [ -63.22544, -17.56399 ], [ -63.22547, -17.56374 ], [ -63.22534, -17.56374 ], [ -63.22531, -17.56398 ], [ -63.22544, -17.56399 ] ] ] } },
{ "type": "Feature", "properties": { "i": 106 }, "geometry": { "type": "Polygon", "coordinates": [ [ [ -63.2207, -17.56531 ], [ -63.22097, -17.56518 ], [ -63.22111, -17.56506 ], [ -63.22087, -17.56492 ], [ -63.22089, -17.5649 ], [ -63.22113, -17.56504 ], [ -63.2213, -17.56485 ], [ -63.22135, -17.56485 ], [ -63.22181, -17.56451 ], [ -63.2216, -17.56439 ], [ -63.22132, -17.5645 ], [ -63.2212, -17.56448 ], [ -63.22072, -17.56383 ], [ -63.22031, -17.56523 ], [ -63.22037, -17.56532 ], [ -63.22045, -17.56534 ], [ -63.2207, -17.56531 ] ] ] } },
{ "type": "Feature", "properties": { "i": 107 }, "geometry": { "type": "Polygon", "coordinates": [ [ [ -63.2253, -17.56373 ], [ -63.22518, -17.56371 ], [ -63.22514, -17.56395 ], [ -63.22526, -17.56397 ], [ -63.2253, -17.56373 ] ] ] } },
{ "type": "Feature", "properties": { "i": 108 }, "geometry": { "type": "Polygon", "coordinates": [ [ [ -63.22284, -17.56401 ], [ -63.22276, -17.56407 ], [ -63.22275, -17.56415 ], [ -63.22279, -17.56446 ], [ -63.22282, -17.56447 ], [ -63.22314, -17.56441 ], [ -63.22308, -17.56398 ], [ -63.22284, -17.56401 ] ] ] } },
{ "type": "Feature", "properties": { "i": 109 }, "geometry": { "type": "Polygon", "coordinates": [ [ [ -63.2251, -17.5637 ], [ -63.22496, -17.56367 ], [ -63.22493, -17.56393 ], [ -63.22507, -17.56394 ], [ -63.2251, -17.5637 ] ] ] } },
{ "type": "Feature", "properties": { "i": 110 }, "geometry": { "type": "Polygon", "coordinates": [ [ [ -63.22452, -17.56373 ], [ -63.22399, -17.56377 ], [ -63.2241, -17.5642 ], [ -63.22413, -17.56421 ], [ -63.22451, -17.56412 ], [ -63.22458, -17.56409 ], [ -63.22467, -17.56401 ], [ -63.22469, -17.56397 ], [ -63.22467, -17.56388 ], [ -63.22458, -17.56377 ], [ -63.22452, -17.56373 ] ] ] } },
{ "type": "Feature", "properties": { "i": 111 }, "geometry": { "type": "Polygon", "coordinates": [ [ [ -63.2248, -17.56392 ], [ -63.2249, -17.56392 ], [ -63.22493, -17.56365 ], [ -63.22481, -17.56364 ], [ -63.22478, -17.5639 ], [ -63.2248, -17.56392 ] ] ] } },
{ "type": "Feature", "properties": { "i": 112 }, "geometry": { "type": "Polygon", "coordinates": [ [ [ -63.22358, -17.56383 ], [ -63.22372, -17.56428 ], [ -63.22374, -17.56429 ], [ -63.22403, -17.56422 ], [ -63.22404, -17.56418 ], [ -63.2239, -17.56374 ], [ -63.22384, -17.56373 ], [ -63.22358, -17.56383 ] ] ] } },
{ "type": "Feature", "properties": { "i": 113 }, "geometry": { "type": "Polygon", "coordinates": [ [ [ -63.22618, -17.56304 ], [ -63.22582, -17.56311 ], [ -63.22577, -17.5632 ], [ -63.22577, -17.56337 ], [ -63.22663, -17.56346 ], [ -63.22666, -17.56343 ], [ -63.22672, -17.56322 ], [ -63.22671, -17.56319 ], [ -63.22618, -17.56304 ] ] ] } },
{ "type": "Feature", "properties": { "i": 114 }, "geometry": { "type": "Polygon", "coordinates": [ [ [ -63.22527, -17.56341 ], [ -63.22492, -17.56329 ], [ -63.22489, -17.5633 ], [ -63.22487, -17.56358 ], [ -63.22523, -17.56365 ], [ -63.22525, -17.56363 ], [ -63.22527, -17.56341 ] ] ] } },
{ "type": "Feature", "properties": { "i": 115 }, "geometry": { "type": "Polygon", "coordinates": [ [ [ -63.22211, -17.56422 ], [ -63.22147, -17.56373 ], [ -63.22094, -17.56355 ], [ -63.22086, -17.56357 ], [ -63.2208, -17.56378 ], [ -63.22081, -17.56384 ], [ -63.22117, -17.56435 ], [ -63.22126, -17.56442 ], [ -63.22148, -17.56439 ], [ -63.22161, -17.56431 ], [ -63.22186, -17.56447 ], [ -63.22211, -17.56424 ], [ -63.22211, -17.56422 ] ] ] } },
{ "type": "Feature", "properties": { "i": 116 }, "geometry": { "type": "Polygon", "coordinates": [ [ [ -63.22475, -17.56358 ], [ -63.22478, -17.56322 ], [ -63.2246, -17.5632 ], [ -63.22412, -17.5632 ], [ -63.22409, -17.56323 ], [ -63.22408, -17.56363 ], [ -63.22473, -17.5636 ], [ -63.22475, -17.56358 ] ] ] } },
{ "type": "Feature", "properties": { "i": 117 }, "geometry": { "type": "Polygon", "coordinates": [ [ [ -63.2221, -17.56412 ], [ -63.22234, -17.56415 ], [ -63.22257, -17.56412 ], [ -63.22263, -17.56408 ], [ -63.22304, -17.56366 ], [ -63.22309, -17.5635 ], [ -63.22269, -17.56325 ], [ -63.22262, -17.56324 ], [ -63.22229, -17.56365 ], [ -63.22207, -17.56406 ], [ -63.2221, -17.56412 ] ] ] } },
{ "type": "Feature", "properties": { "i": 118 }, "geometry": { "type": "Polygon", "coordinates": [ [ [ -63.22336, -17.5632 ], [ -63.22335, -17.56363 ], [ -63.22339, -17.56363 ], [ -63.22343, -17.56379 ], [ -63.22346, -17.5638 ], [ -63.22362, -17.56376 ], [ -63.22398, -17.56363 ], [ -63.22399, -17.5632 ], [ -63.22336, -17.5632 ] ] ] } },
{ "type": "Feature", "properties": { "i": 119 }, "geometry": { "type": "Polygon", "coordinates": [ [ [ -63.22628, -17.56235 ], [ -63.22625, -17.56243 ], [ -63.22618, -17.56243 ], [ -63.22612, -17.5627 ], [ -63.22599, -17.56297 ], [ -63.22619, -17.563 ], [ -63.22637, -17.56236 ], [ -63.22628, -17.56235 ] ] ] } },
{ "type": "Feature", "properties": { "i": 120 }, "geometry": { "type": "Polygon", "coordinates": [ [ [ -63.22545, -17.56244 ], [ -63.22536, -17.56251 ], [ -63.22532, -17.56261 ], [ -63.22531, -17.56334 ], [ -63.22571, -17.5633 ], [ -63.22572, -17.56317 ], [ -63.22575, -17.5631 ], [ -63.22584, -17.56301 ], [ -63.22592, -17.56298 ], [ -63.22601, -17.5628 ], [ -63.22611, -17.56251 ], [ -63.22611, -17.56227 ], [ -63.22605, -17.56211 ], [ -63.22603, -17.56195 ], [ -63.22576, -17.56199 ], [ -63.22574, -17.56229 ], [ -63.22545, -17.56244 ] ] ] } },
{ "type": "Feature", "properties": { "i": 121 }, "geometry": { "type": "Polygon", "coordinates": [ [ [ -63.22197, -17.56248 ], [ -63.2212, -17.56263 ], [ -63.22113, -17.56267 ], [ -63.22097, -17.56306 ], [ -63.22089, -17.56343 ], [ -63.22091, -17.56346 ], [ -63.22138, -17.5636 ], [ -63.22154, -17.56367 ], [ -63.22153, -17.56371 ], [ -63.22193, -17.564 ], [ -63.22197, -17.564 ], [ -63.222, -17.56398 ], [ -63.22227, -17.56346 ], [ -63.22259, -17.56323 ], [ -63.2226, -17.56312 ], [ -63.22197, -17.56248 ] ] ] } },
{ "type": "Feature", "properties": { "i": 122 }, "geometry": { "type": "Polygon", "coordinates": [ [ [ -63.22415, -17.56279 ], [ -63.22413, -17.56282 ], [ -63.2242, -17.56307 ], [ -63.22425, -17.56307 ], [ -63.2251, -17.56268 ], [ -63.22511, -17.56266 ], [ -63.22502, -17.56247 ], [ -63.225, -17.56247 ], [ -63.22415, -17.56279 ] ] ] } },
{ "type": "Feature", "properties": { "i": 123 }, "geometry": { "type": "Polygon", "coordinates": [ [ [ -63.224, -17.56263 ], [ -63.22332, -17.56265 ], [ -63.2233, -17.56306 ], [ -63.22334, -17.56309 ], [ -63.22409, -17.56309 ], [ -63.2241, -17.56304 ], [ -63.224, -17.56263 ] ] ] } },
{ "type": "Feature", "properties": { "i": 124 }, "geometry": { "type": "Polygon", "coordinates": [ [ [ -63.22301, -17.56263 ], [ -63.22306, -17.56234 ], [ -63.22296, -17.56214 ], [ -63.22264, -17.56227 ], [ -63.22252, -17.56292 ], [ -63.22268, -17.56304 ], [ -63.22301, -17.56263 ] ] ] } },
{ "type": "Feature", "properties": { "i": 125 }, "geometry": { "type": "Polygon", "coordinates": [ [ [ -63.22412, -17.56274 ], [ -63.22495, -17.56243 ], [ -63.22497, -17.56239 ], [ -63.22488, -17.56219 ], [ -63.22493, -17.56216 ], [ -63.22515, -17.56264 ], [ -63.22518, -17.56265 ], [ -63.22526, -17.56262 ], [ -63.22533, -17.56242 ], [ -63.22572, -17.56225 ], [ -63.22575, -17.56187 ], [ -63.22533, -17.56183 ], [ -63.22491, -17.56189 ], [ -63.224, -17.56238 ], [ -63.2241, -17.56271 ], [ -63.22412, -17.56274 ] ] ] } },
{ "type": "Feature", "properties": { "i": 126 }, "geometry": { "type": "Polygon", "coordinates": [ [ [ -63.22247, -17.56286 ], [ -63.22258, -17.56237 ], [ -63.22257, -17.56234 ], [ -63.22252, -17.56232 ], [ -63.22209, -17.56244 ], [ -63.22208, -17.56248 ], [ -63.22216, -17.56261 ], [ -63.22247, -17.56286 ] ] ] } },
{ "type": "Feature", "properties": { "i": 127 }, "geometry": { "type": "Polygon", "coordinates": [ [ [ -63.22318, -17.56203 ], [ -63.22288, -17.56162 ], [ -63.22289, -17.56153 ], [ -63.22299, -17.56143 ], [ -63.22338, -17.56143 ], [ -63.2234, -17.56147 ], [ -63.22481, -17.56143 ], [ -63.2248, -17.56157 ], [ -63.22467, -17.56161 ], [ -63.22435, -17.56195 ], [ -63.22413, -17.56194 ], [ -63.22378, -17.56208 ], [ -63.22351, -17.56235 ], [ -63.22331, -17.5625 ], [ -63.22325, -17.56219 ], [ -63.22318, -17.56203 ] ] ] } },
{ "type": "Feature", "properties": { "i": 128 }, "geometry": { "type": "Polygon", "coordinates": [ [ [ -63.22609, -17.56159 ], [ -63.22612, -17.56149 ], [ -63.22609, -17.56146 ], [ -63.22495, -17.56142 ], [ -63.22495, -17.56178 ], [ -63.22518, -17.56177 ], [ -63.22557, -17.56158 ], [ -63.22609, -17.56159 ] ] ] } },
{ "type": "Feature", "properties": { "i": 129 }, "geometry": { "type": "Polygon", "coordinates": [ [ [ -63.22238, -17.56217 ], [ -63.22242, -17.56228 ], [ -63.22245, -17.56229 ], [ -63.22293, -17.56209 ], [ -63.22294, -17.56206 ], [ -63.22287, -17.56195 ], [ -63.22238, -17.56217 ] ] ] } },
{ "type": "Feature", "properties": { "i": 130 }, "geometry": { "type": "Polygon", "coordinates": [ [ [ -63.22156, -17.56184 ], [ -63.22151, -17.56243 ], [ -63.22153, -17.56247 ], [ -63.22198, -17.56242 ], [ -63.22226, -17.56229 ], [ -63.22212, -17.56215 ], [ -63.22199, -17.56215 ], [ -63.22198, -17.56208 ], [ -63.22203, -17.56202 ], [ -63.22231, -17.56218 ], [ -63.22254, -17.56208 ], [ -63.22235, -17.56168 ], [ -63.22249, -17.56156 ], [ -63.22239, -17.56138 ], [ -63.22179, -17.56097 ], [ -63.22171, -17.56101 ], [ -63.22156, -17.56184 ] ] ] } },
{ "type": "Feature", "properties": { "i": 131 }, "geometry": { "type": "Polygon", "coordinates": [ [ [ -63.22111, -17.56169 ], [ -63.22107, -17.56203 ], [ -63.22125, -17.56206 ], [ -63.22142, -17.5617 ], [ -63.22111, -17.56169 ] ] ] } },
{ "type": "Feature", "properties": { "i": 132 }, "geometry": { "type": "Polygon", "coordinates": [ [ [ -63.22149, -17.56138 ], [ -63.22115, -17.56126 ], [ -63.22117, -17.56122 ], [ -63.22147, -17.56132 ], [ -63.2216, -17.56102 ], [ -63.22127, -17.56079 ], [ -63.22119, -17.56081 ], [ -63.22101, -17.56101 ], [ -63.22096, -17.56096 ], [ -63.22115, -17.56076 ], [ -63.22113, -17.56068 ], [ -63.22106, -17.56063 ], [ -63.22102, -17.56063 ], [ -63.22097, -17.56069 ], [ -63.22039, -17.56029 ], [ -63.22019, -17.56055 ], [ -63.22069, -17.56274 ], [ -63.22071, -17.56276 ], [ -63.22074, -17.56277 ], [ -63.22092, -17.56273 ], [ -63.22096, -17.5627 ], [ -63.22103, -17.56258 ], [ -63.22105, -17.56167 ], [ -63.22088, -17.56165 ], [ -63.22088, -17.56163 ], [ -63.22143, -17.56165 ], [ -63.22149, -17.56138 ] ] ] } },
{ "type": "Feature", "properties": { "i": 133 }, "geometry": { "type": "Polygon", "coordinates": [ [ [ -63.22213, -17.55965 ], [ -63.22198, -17.56016 ], [ -63.22203, -17.56061 ], [ -63.22215, -17.56083 ], [ -63.22256, -17.56131 ], [ -63.22264, -17.56133 ], [ -63.2227, -17.56132 ], [ -63.22292, -17.56123 ], [ -63.22318, -17.56075 ], [ -63.22325, -17.56078 ], [ -63.22308, -17.5612 ], [ -63.22311, -17.56123 ], [ -63.22329, -17.5613 ], [ -63.22336, -17.56128 ], [ -63.22377, -17.56059 ], [ -63.22399, -17.56068 ], [ -63.22397, -17.56072 ], [ -63.22378, -17.56064 ], [ -63.22367, -17.56087 ], [ -63.22384, -17.56093 ], [ -63.22382, -17.56097 ], [ -63.22365, -17.56091 ], [ -63.22346, -17.56126 ], [ -63.22346, -17.56131 ], [ -63.22348, -17.56132 ], [ -63.22405, -17.56134 ], [ -63.22483, -17.56131 ], [ -63.22508, -17.5612 ], [ -63.22516, -17.56109 ], [ -63.22516, -17.56086 ], [ -63.22509, -17.56075 ], [ -63.22503, -17.56071 ], [ -63.22465, -17.56056 ], [ -63.22332, -17.56023 ], [ -63.22279, -17.56005 ], [ -63.2225, -17.55991 ], [ -63.22239, -17.55979 ], [ -63.22234, -17.55966 ], [ -63.22213, -17.55965 ] ] ] } },
{ "type": "Feature", "properties": { "i": 134 }, "geometry": { "type": "Polygon", "coordinates": [ [ [ -63.22161, -17.56072 ], [ -63.22139, -17.56055 ], [ -63.22126, -17.56072 ], [ -63.22157, -17.56094 ], [ -63.2216, -17.56087 ], [ -63.22161, -17.56072 ] ] ] } },
{ "type": "Feature", "properties": { "i": 135 }, "geometry": { "type": "Polygon", "coordinates": [ [ [ -63.22121, -17.5604 ], [ -63.22107, -17.56057 ], [ -63.22122, -17.56068 ], [ -63.22135, -17.56052 ], [ -63.22121, -17.5604 ] ] ] } },
{ "type": "Feature", "properties": { "i": 136 }, "geometry": { "type": "Polygon", "coordinates": [ [ [ -63.22089, -17.56024 ], [ -63.221, -17.56031 ], [ -63.22106, -17.56023 ], [ -63.22066, -17.55992 ], [ -63.22041, -17.56025 ], [ -63.22097, -17.56064 ], [ -63.2211, -17.56045 ], [ -63.22086, -17.56029 ], [ -63.22089, -17.56024 ] ] ] } },
{ "type": "Feature", "properties": { "i": 137 }, "geometry": { "type": "Polygon", "coordinates": [ [ [ -63.22185, -17.55939 ], [ -63.22149, -17.56033 ], [ -63.22144, -17.56035 ], [ -63.22064, -17.55975 ], [ -63.22058, -17.55961 ], [ -63.22057, -17.55911 ], [ -63.22128, -17.55791 ], [ -63.2219, -17.55856 ], [ -63.22168, -17.55912 ], [ -63.22174, -17.55915 ], [ -63.22183, -17.55933 ], [ -63.22124, -17.55905 ], [ -63.22123, -17.55908 ], [ -63.22184, -17.55937 ], [ -63.22185, -17.55939 ] ] ] } },
{ "type": "Feature", "properties": { "i": 138 }, "geometry": { "type": "Polygon", "coordinates": [ [ [ -63.2221, -17.55878 ], [ -63.22198, -17.55863 ], [ -63.22194, -17.55863 ], [ -63.22176, -17.55909 ], [ -63.22178, -17.55912 ], [ -63.22191, -17.55918 ], [ -63.22197, -17.55917 ], [ -63.2221, -17.55878 ] ] ] } },
{ "type": "Feature", "properties": { "i": 139 }, "geometry": { "type": "Polygon", "coordinates": [ [ [ -63.22279, -17.55521 ], [ -63.22254, -17.55519 ], [ -63.22244, -17.55603 ], [ -63.22235, -17.55644 ], [ -63.22198, -17.55775 ], [ -63.22168, -17.55762 ], [ -63.22141, -17.55795 ], [ -63.22205, -17.55862 ], [ -63.22211, -17.55866 ], [ -63.22216, -17.55863 ], [ -63.22254, -17.55755 ], [ -63.22261, -17.55724 ], [ -63.22269, -17.55654 ], [ -63.22279, -17.55521 ] ] ] } },
{ "type": "Feature", "properties": { "i": 140 }, "geometry": { "type": "Polygon", "coordinates": [ [ [ -63.21869, -17.55474 ], [ -63.21838, -17.55471 ], [ -63.2174, -17.5547 ], [ -63.21739, -17.55545 ], [ -63.21827, -17.55566 ], [ -63.21861, -17.55534 ], [ -63.21869, -17.55474 ] ] ] } }
]
}
