{
"type": "FeatureCollection",
"name": "municipios",
"crs": { "type": "name", "properties": { "name": "urn:ogc:def:crs:OGC:1.3:CRS84" } },
"xy_coordinate_resolution": 1e-05,
"features": [
{ "type": "Feature", "properties": { "sigep": "1734", "nombre": "Montero", "ambito": "influencia" }, "geometry": { "type": "Polygon", "coordinates": [ [ [ -63.13065, -17.28019 ], [ -63.12837, -17.28441 ], [ -63.13271, -17.28574 ], [ -63.13373, -17.28908 ], [ -63.13876, -17.29298 ], [ -63.14617, -17.29498 ], [ -63.14891, -17.29753 ], [ -63.14902, -17.30287 ], [ -63.15085, -17.30598 ], [ -63.15028, -17.30976 ], [ -63.14823, -17.31176 ], [ -63.1415, -17.31244 ], [ -63.1408, -17.31421 ], [ -63.144, -17.32244 ], [ -63.13978, -17.32634 ], [ -63.13967, -17.33045 ], [ -63.1431, -17.33589 ], [ -63.14959, -17.33568 ], [ -63.15245, -17.34313 ], [ -63.15496, -17.34658 ], [ -63.15553, -17.35514 ], [ -63.16832, -17.35524 ], [ -63.17585, -17.35636 ], [ -63.18418, -17.35391 ], [ -63.18954, -17.36092 ], [ -63.18874, -17.36915 ], [ -63.19148, -17.37349 ], [ -63.19148, -17.37816 ], [ -63.18794, -17.38071 ], [ -63.19239, -17.38482 ], [ -63.20392, -17.37871 ], [ -63.21796, -17.37526 ], [ -63.2336, -17.37571 ], [ -63.23553, -17.3826 ], [ -63.23998, -17.38616 ], [ -63.2426, -17.38638 ], [ -63.24603, -17.38361 ], [ -63.24797, -17.38505 ], [ -63.24284, -17.39395 ], [ -63.23588, -17.39885 ], [ -63.23347, -17.4014 ], [ -63.23383, -17.40562 ], [ -63.22937, -17.4093 ], [ -63.23119, -17.41352 ], [ -63.25813, -17.42697 ], [ -63.2603, -17.42219 ], [ -63.26578, -17.4174 ], [ -63.27046, -17.41508 ], [ -63.27993, -17.41475 ], [ -63.28587, -17.41629 ], [ -63.29157, -17.41385 ], [ -63.29362, -17.41008 ], [ -63.3023, -17.40541 ], [ -63.30641, -17.39795 ], [ -63.30926, -17.39473 ], [ -63.31245, -17.39339 ], [ -63.31405, -17.38739 ], [ -63.31794, -17.38449 ], [ -63.32444, -17.38394 ], [ -63.32889, -17.38116 ], [ -63.33208, -17.37526 ], [ -63.33197, -17.36614 ], [ -63.33493, -17.35814 ], [ -63.33551, -17.34535 ], [ -63.33437, -17.34169 ], [ -63.32775, -17.32844 ], [ -63.32592, -17.31822 ], [ -63.32569, -17.30954 ], [ -63.32729, -17.30331 ], [ -63.32592, -17.30065 ], [ -63.32124, -17.29876 ], [ -63.31828, -17.29119 ], [ -63.31965, -17.28586 ], [ -63.31919, -17.2814 ], [ -63.31599, -17.27274 ], [ -63.31759, -17.26951 ], [ -63.31451, -17.26394 ], [ -63.31816, -17.26017 ], [ -63.31873, -17.25682 ], [ -63.29008, -17.2546 ], [ -63.24694, -17.25516 ], [ -63.24341, -17.26295 ], [ -63.24238, -17.2704 ], [ -63.23919, -17.27585 ], [ -63.24045, -17.2793 ], [ -63.23611, -17.28519 ], [ -63.23679, -17.28963 ], [ -63.22059, -17.28363 ], [ -63.21499, -17.29164 ], [ -63.20449, -17.29019 ], [ -63.20449, -17.2883 ], [ -63.19696, -17.28975 ], [ -63.18988, -17.29008 ], [ -63.17847, -17.2893 ], [ -63.15187, -17.28263 ], [ -63.13065, -17.28019 ] ] ] } },
{ "type": "Feature", "properties": { "sigep": "1756", "nombre": "Colpa Bélgica", "ambito": "influencia" }, "geometry": { "type": "Polygon", "coordinates": [ [ [ -63.19822, -17.59312 ], [ -63.19765, -17.60312 ], [ -63.19982, -17.61135 ], [ -63.20609, -17.61135 ], [ -63.21522, -17.61535 ], [ -63.23907, -17.60779 ], [ -63.24809, -17.60324 ], [ -63.25688, -17.6068 ], [ -63.26007, -17.61313 ], [ -63.26258, -17.61447 ], [ -63.26646, -17.62025 ], [ -63.27331, -17.62259 ], [ -63.29568, -17.63337 ], [ -63.30058, -17.63115 ], [ -63.30149, -17.62581 ], [ -63.30583, -17.62358 ], [ -63.30824, -17.61969 ], [ -63.31041, -17.62002 ], [ -63.31554, -17.61735 ], [ -63.31645, -17.61291 ], [ -63.31862, -17.61147 ], [ -63.32318, -17.61258 ], [ -63.3242, -17.61558 ], [ -63.3298, -17.61303 ], [ -63.33391, -17.61247 ], [ -63.33346, -17.61959 ], [ -63.32809, -17.62469 ], [ -63.32992, -17.63292 ], [ -63.35674, -17.62381 ], [ -63.35434, -17.61959 ], [ -63.35377, -17.61002 ], [ -63.35468, -17.60291 ], [ -63.36176, -17.59211 ], [ -63.36176, -17.58878 ], [ -63.36393, -17.5831 ], [ -63.36518, -17.57533 ], [ -63.3726, -17.56998 ], [ -63.37626, -17.56909 ], [ -63.38458, -17.57087 ], [ -63.38744, -17.56531 ], [ -63.39577, -17.5662 ], [ -63.39965, -17.56509 ], [ -63.40329, -17.56599 ], [ -63.4041, -17.56109 ], [ -63.40638, -17.56054 ], [ -63.4154, -17.56342 ], [ -63.41985, -17.56576 ], [ -63.42966, -17.56042 ], [ -63.40638, -17.5463 ], [ -63.36781, -17.51638 ], [ -63.32752, -17.47179 ], [ -63.2562, -17.44087 ], [ -63.24877, -17.44466 ], [ -63.2433, -17.45167 ], [ -63.23428, -17.46601 ], [ -63.23347, -17.47168 ], [ -63.22709, -17.4789 ], [ -63.22344, -17.48402 ], [ -63.22115, -17.48947 ], [ -63.22024, -17.49892 ], [ -63.21898, -17.50282 ], [ -63.21374, -17.51093 ], [ -63.21293, -17.5135 ], [ -63.21191, -17.52362 ], [ -63.21191, -17.5324 ], [ -63.21408, -17.54085 ], [ -63.21362, -17.54618 ], [ -63.20997, -17.55208 ], [ -63.20929, -17.55686 ], [ -63.21054, -17.56165 ], [ -63.20678, -17.57087 ], [ -63.20484, -17.58033 ], [ -63.20084, -17.58477 ], [ -63.19822, -17.59312 ] ] ] } },
{ "type": "Feature", "properties": { "sigep": "1706", "nombre": "Warnes", "ambito": "núcleo" }, "geometry": { "type": "Polygon", "coordinates": [ [ [ -62.98548, -17.05276 ], [ -63.03581, -17.09925 ], [ -63.03924, -17.10449 ], [ -63.02257, -17.12827 ], [ -63.01915, -17.13372 ], [ -63.01378, -17.13551 ], [ -63.0075, -17.13973 ], [ -62.99586, -17.14518 ], [ -62.9889, -17.14985 ], [ -62.98514, -17.15085 ], [ -62.98126, -17.14896 ], [ -62.97624, -17.15408 ], [ -62.97794, -17.1592 ], [ -62.97555, -17.16408 ], [ -62.97864, -17.17031 ], [ -62.97555, -17.17487 ], [ -62.97898, -17.18243 ], [ -62.9783, -17.18555 ], [ -62.97418, -17.18822 ], [ -62.97179, -17.19289 ], [ -62.97087, -17.19978 ], [ -62.96734, -17.20079 ], [ -62.96608, -17.20412 ], [ -62.9654, -17.21112 ], [ -62.96117, -17.21279 ], [ -62.96666, -17.22136 ], [ -62.97179, -17.2308 ], [ -62.97886, -17.24127 ], [ -62.96756, -17.26361 ], [ -62.9533, -17.25962 ], [ -62.94919, -17.25894 ], [ -62.94348, -17.26061 ], [ -62.94029, -17.25939 ], [ -62.93812, -17.26361 ], [ -62.93435, -17.26484 ], [ -62.93492, -17.27206 ], [ -62.93195, -17.27685 ], [ -62.9315, -17.28319 ], [ -62.92876, -17.29319 ], [ -62.92854, -17.29742 ], [ -62.92637, -17.30164 ], [ -62.92807, -17.30654 ], [ -62.92579, -17.31499 ], [ -62.92271, -17.32077 ], [ -62.92443, -17.3319 ], [ -62.92145, -17.33623 ], [ -62.92328, -17.33946 ], [ -62.92294, -17.3428 ], [ -62.92784, -17.34702 ], [ -62.93401, -17.3508 ], [ -62.93412, -17.35536 ], [ -62.93572, -17.35691 ], [ -62.93857, -17.3647 ], [ -62.94371, -17.36915 ], [ -62.95067, -17.37659 ], [ -62.95306, -17.38149 ], [ -62.95706, -17.38416 ], [ -62.95832, -17.39173 ], [ -62.95523, -17.4014 ], [ -62.95604, -17.40829 ], [ -62.94942, -17.41697 ], [ -62.94919, -17.42186 ], [ -62.95319, -17.42752 ], [ -62.94874, -17.43387 ], [ -62.93903, -17.43276 ], [ -62.93801, -17.43554 ], [ -62.9412, -17.44054 ], [ -62.9404, -17.45132 ], [ -62.94382, -17.45455 ], [ -62.94965, -17.46835 ], [ -62.94965, -17.50159 ], [ -62.95091, -17.52662 ], [ -62.9484, -17.56954 ], [ -62.94976, -17.57966 ], [ -62.95581, -17.586 ], [ -62.95889, -17.59711 ], [ -62.97121, -17.599 ], [ -62.98331, -17.60702 ], [ -62.9856, -17.61324 ], [ -63.00248, -17.62381 ], [ -63.01173, -17.62303 ], [ -63.02304, -17.62537 ], [ -63.03147, -17.62636 ], [ -63.04528, -17.63059 ], [ -63.04973, -17.63047 ], [ -63.04996, -17.63693 ], [ -63.05328, -17.63983 ], [ -63.05396, -17.64438 ], [ -63.06229, -17.64905 ], [ -63.06537, -17.65172 ], [ -63.07039, -17.65106 ], [ -63.07529, -17.65427 ], [ -63.08546, -17.65394 ], [ -63.08477, -17.65839 ], [ -63.0947, -17.66974 ], [ -63.144, -17.67029 ], [ -63.1577, -17.67529 ], [ -63.15872, -17.67418 ], [ -63.15747, -17.64627 ], [ -63.16272, -17.64616 ], [ -63.16581, -17.64193 ], [ -63.1666, -17.63759 ], [ -63.16911, -17.63259 ], [ -63.17379, -17.62971 ], [ -63.17824, -17.62893 ], [ -63.18669, -17.62559 ], [ -63.18897, -17.62225 ], [ -63.18852, -17.61157 ], [ -63.1932, -17.60846 ], [ -63.19297, -17.60157 ], [ -63.19479, -17.59645 ], [ -63.19822, -17.59312 ], [ -63.20084, -17.58477 ], [ -63.20484, -17.58033 ], [ -63.20678, -17.57087 ], [ -63.21054, -17.56165 ], [ -63.20929, -17.55686 ], [ -63.20997, -17.55208 ], [ -63.21362, -17.54618 ], [ -63.21408, -17.54085 ], [ -63.21191, -17.5324 ], [ -63.21191, -17.52362 ], [ -63.21293, -17.5135 ], [ -63.21374, -17.51093 ], [ -63.21898, -17.50282 ], [ -63.22024, -17.49892 ], [ -63.22115, -17.48947 ], [ -63.22344, -17.48402 ], [ -63.22709, -17.4789 ], [ -63.23347, -17.47168 ], [ -63.23428, -17.46601 ], [ -63.2433, -17.45167 ], [ -63.24877, -17.44466 ], [ -63.2562, -17.44087 ], [ -63.25801, -17.4332 ], [ -63.25813, -17.42697 ], [ -63.23119, -17.41352 ], [ -63.22937, -17.4093 ], [ -63.23383, -17.40562 ], [ -63.23347, -17.4014 ], [ -63.23588, -17.39885 ], [ -63.24284, -17.39395 ], [ -63.24797, -17.38505 ], [ -63.24603, -17.38361 ], [ -63.2426, -17.38638 ], [ -63.23998, -17.38616 ], [ -63.23553, -17.3826 ], [ -63.2336, -17.37571 ], [ -63.21796, -17.37526 ], [ -63.20392, -17.37871 ], [ -63.19239, -17.38482 ], [ -63.18794, -17.38071 ], [ -63.19148, -17.37816 ], [ -63.19148, -17.37349 ], [ -63.18874, -17.36915 ], [ -63.18954, -17.36092 ], [ -63.18418, -17.35391 ], [ -63.17585, -17.35636 ], [ -63.16832, -17.35524 ], [ -63.15553, -17.35514 ], [ -63.15496, -17.34658 ], [ -63.15245, -17.34313 ], [ -63.14959, -17.33568 ], [ -63.1431, -17.33589 ], [ -63.13967, -17.33045 ], [ -63.13978, -17.32634 ], [ -63.144, -17.32244 ], [ -63.1408, -17.31421 ], [ -63.1415, -17.31244 ], [ -63.14823, -17.31176 ], [ -63.15028, -17.30976 ], [ -63.15085, -17.30598 ], [ -63.14902, -17.30287 ], [ -63.14891, -17.29753 ], [ -63.14617, -17.29498 ], [ -63.13876, -17.29298 ], [ -63.13373, -17.28908 ], [ -63.13271, -17.28574 ], [ -63.12837, -17.28441 ], [ -63.13065, -17.28019 ], [ -63.12175, -17.26295 ], [ -63.10713, -17.24349 ], [ -63.08489, -17.22369 ], [ -63.08763, -17.20668 ], [ -63.07473, -17.18744 ], [ -63.07153, -17.14518 ], [ -63.06184, -17.1116 ], [ -63.07735, -17.07835 ], [ -63.03672, -17.03686 ], [ -63.03445, -17.03575 ], [ -63.03376, -17.03976 ], [ -63.0293, -17.04565 ], [ -63.02372, -17.04332 ], [ -63.02178, -17.03931 ], [ -63.01778, -17.03998 ], [ -63.01698, -17.0471 ], [ -63.00808, -17.05477 ], [ -63.00067, -17.05255 ], [ -62.99655, -17.05321 ], [ -62.99244, -17.05132 ], [ -62.98548, -17.05276 ] ] ] } },
{ "type": "Feature", "properties": { "sigep": "1702", "nombre": "Cotoca", "ambito": "núcleo" }, "geometry": { "type": "Polygon", "coordinates": [ [ [ -62.78234, -17.65295 ], [ -62.77732, -17.69031 ], [ -62.75997, -17.72377 ], [ -62.75449, -17.76115 ], [ -62.75791, -17.79885 ], [ -62.7772, -17.83165 ], [ -62.78485, -17.83143 ], [ -62.78907, -17.83264 ], [ -62.79158, -17.83521 ], [ -62.80322, -17.8361 ], [ -62.80653, -17.83354 ], [ -62.80995, -17.83332 ], [ -62.81578, -17.83655 ], [ -62.81795, -17.84144 ], [ -62.82091, -17.84511 ], [ -62.82342, -17.84377 ], [ -62.82627, -17.83955 ], [ -62.82902, -17.83821 ], [ -62.83358, -17.84122 ], [ -62.83677, -17.84488 ], [ -62.8588, -17.85177 ], [ -62.86782, -17.85177 ], [ -62.87546, -17.85045 ], [ -62.88334, -17.85 ], [ -62.89121, -17.85378 ], [ -62.89898, -17.85267 ], [ -62.91792, -17.849 ], [ -62.92568, -17.85422 ], [ -62.92888, -17.853 ], [ -62.93321, -17.84821 ], [ -62.94006, -17.84321 ], [ -62.9444, -17.84377 ], [ -62.94131, -17.85644 ], [ -62.95604, -17.86 ], [ -62.9614, -17.84066 ], [ -62.96266, -17.84144 ], [ -62.96905, -17.8371 ], [ -62.96847, -17.84299 ], [ -62.97338, -17.84466 ], [ -62.97715, -17.848 ], [ -62.97281, -17.87269 ], [ -62.98879, -17.86635 ], [ -62.99507, -17.86957 ], [ -62.99678, -17.86913 ], [ -62.99678, -17.85734 ], [ -63.01208, -17.85812 ], [ -63.01481, -17.84667 ], [ -63.02372, -17.84689 ], [ -63.03193, -17.84511 ], [ -63.0341, -17.84243 ], [ -63.039, -17.84332 ], [ -63.04243, -17.84099 ], [ -63.04722, -17.84177 ], [ -63.04837, -17.83544 ], [ -63.0519, -17.83309 ], [ -63.05282, -17.82476 ], [ -63.05727, -17.8262 ], [ -63.06206, -17.82464 ], [ -63.05716, -17.81864 ], [ -63.05703, -17.81096 ], [ -63.0479, -17.81364 ], [ -63.04745, -17.80685 ], [ -63.05452, -17.80662 ], [ -63.05396, -17.79029 ], [ -63.06092, -17.78895 ], [ -63.04734, -17.78161 ], [ -63.04882, -17.77404 ], [ -63.05133, -17.77716 ], [ -63.05967, -17.77672 ], [ -63.05909, -17.77104 ], [ -63.0672, -17.76849 ], [ -63.06754, -17.76437 ], [ -63.06491, -17.76425 ], [ -63.0648, -17.76026 ], [ -63.06833, -17.75236 ], [ -63.06616, -17.75191 ], [ -63.06982, -17.74346 ], [ -63.07278, -17.73412 ], [ -63.07416, -17.73434 ], [ -63.06708, -17.72034 ], [ -63.07027, -17.716 ], [ -63.07655, -17.72134 ], [ -63.08523, -17.70843 ], [ -63.07461, -17.70421 ], [ -63.0705, -17.70466 ], [ -63.06548, -17.70065 ], [ -63.06902, -17.69298 ], [ -63.0616, -17.68308 ], [ -63.07153, -17.67307 ], [ -63.07084, -17.66873 ], [ -63.0648, -17.66429 ], [ -63.06263, -17.66173 ], [ -63.05578, -17.67107 ], [ -63.03741, -17.65795 ], [ -63.02485, -17.65116 ], [ -63.01881, -17.66284 ], [ -63.0074, -17.65472 ], [ -63.0026, -17.65028 ], [ -63.00135, -17.65372 ], [ -62.98982, -17.65116 ], [ -62.9872, -17.64939 ], [ -62.97338, -17.65005 ], [ -62.9606, -17.65217 ], [ -62.95478, -17.65717 ], [ -62.9525, -17.65606 ], [ -62.94531, -17.66295 ], [ -62.93252, -17.65773 ], [ -62.93048, -17.66307 ], [ -62.92648, -17.66161 ], [ -62.92339, -17.66863 ], [ -62.92032, -17.6674 ], [ -62.91871, -17.66406 ], [ -62.91564, -17.6625 ], [ -62.91324, -17.66429 ], [ -62.90833, -17.66229 ], [ -62.89943, -17.66095 ], [ -62.89909, -17.66307 ], [ -62.88482, -17.66118 ], [ -62.86337, -17.66139 ], [ -62.85811, -17.66918 ], [ -62.84032, -17.66406 ], [ -62.83015, -17.66273 ], [ -62.82342, -17.66507 ], [ -62.82217, -17.66095 ], [ -62.81942, -17.65929 ], [ -62.8151, -17.65939 ], [ -62.80642, -17.65728 ], [ -62.80584, -17.66284 ], [ -62.80037, -17.66229 ], [ -62.80003, -17.66484 ], [ -62.79375, -17.66451 ], [ -62.78952, -17.65873 ], [ -62.78234, -17.65295 ] ] ] } },
{ "type": "Feature", "properties": { "sigep": "1714", "nombre": "Pailón", "ambito": "influencia" }, "geometry": { "type": "Polygon", "coordinates": [ [ [ -61.25429, -17.40251 ], [ -61.26205, -17.40718 ], [ -61.26079, -17.41162 ], [ -61.25498, -17.41441 ], [ -61.25771, -17.42242 ], [ -61.25155, -17.42865 ], [ -61.24744, -17.43087 ], [ -61.24345, -17.43087 ], [ -61.24093, -17.42797 ], [ -61.2398, -17.42397 ], [ -61.23478, -17.42598 ], [ -61.23295, -17.42865 ], [ -61.2301, -17.42865 ], [ -61.22656, -17.42542 ], [ -61.21971, -17.4252 ], [ -61.21833, -17.42875 ], [ -61.21388, -17.42997 ], [ -61.2148, -17.4342 ], [ -61.22314, -17.43988 ], [ -61.22735, -17.43976 ], [ -61.22804, -17.44276 ], [ -61.22518, -17.44544 ], [ -61.2285, -17.45021 ], [ -61.22633, -17.45245 ], [ -61.21652, -17.45767 ], [ -61.20818, -17.45844 ], [ -61.20705, -17.468 ], [ -61.20316, -17.47201 ], [ -61.19996, -17.47757 ], [ -61.197, -17.47779 ], [ -61.19415, -17.48113 ], [ -61.1962, -17.48503 ], [ -61.19494, -17.48992 ], [ -61.20099, -17.4917 ], [ -61.1962, -17.49592 ], [ -61.18855, -17.5006 ], [ -61.18239, -17.50037 ], [ -61.18034, -17.50459 ], [ -61.17748, -17.50548 ], [ -61.17817, -17.50893 ], [ -61.17508, -17.51127 ], [ -61.17783, -17.51572 ], [ -61.17087, -17.51516 ], [ -61.1647, -17.51983 ], [ -61.16265, -17.51738 ], [ -61.15991, -17.5186 ], [ -61.16014, -17.53028 ], [ -61.15546, -17.53396 ], [ -61.14724, -17.53362 ], [ -61.14599, -17.5394 ], [ -61.14861, -17.54696 ], [ -61.14861, -17.54931 ], [ -61.14541, -17.5513 ], [ -61.14507, -17.55476 ], [ -61.14758, -17.55663 ], [ -61.15158, -17.55497 ], [ -61.1542, -17.55797 ], [ -61.15431, -17.56153 ], [ -61.15946, -17.56375 ], [ -61.16002, -17.56609 ], [ -61.16595, -17.56988 ], [ -61.17029, -17.5701 ], [ -61.17291, -17.57588 ], [ -61.17269, -17.58022 ], [ -61.1687, -17.58555 ], [ -61.15546, -17.58888 ], [ -61.15226, -17.59123 ], [ -61.14667, -17.59178 ], [ -61.14107, -17.6018 ], [ -61.14176, -17.60479 ], [ -61.13845, -17.60657 ], [ -61.12943, -17.6168 ], [ -61.13103, -17.62358 ], [ -61.13639, -17.62403 ], [ -61.1389, -17.63514 ], [ -61.13434, -17.63671 ], [ -61.13856, -17.64216 ], [ -61.13423, -17.64405 ], [ -61.13172, -17.6555 ], [ -61.13354, -17.65806 ], [ -61.13103, -17.66073 ], [ -61.13423, -17.6625 ], [ -61.14267, -17.6625 ], [ -61.14769, -17.66807 ], [ -61.1485, -17.67718 ], [ -61.15067, -17.68274 ], [ -61.15557, -17.69209 ], [ -61.15933, -17.69175 ], [ -61.1655, -17.6951 ], [ -61.17063, -17.69475 ], [ -61.17485, -17.69565 ], [ -61.17919, -17.70032 ], [ -61.18376, -17.69909 ], [ -61.18342, -17.70265 ], [ -61.1913, -17.70643 ], [ -61.19483, -17.71455 ], [ -61.20134, -17.71766 ], [ -61.20956, -17.71766 ], [ -61.2115, -17.72122 ], [ -61.21811, -17.719 ], [ -61.22416, -17.72534 ], [ -61.22336, -17.73235 ], [ -61.22016, -17.73679 ], [ -61.22039, -17.74101 ], [ -61.2221, -17.74547 ], [ -61.21594, -17.75269 ], [ -61.21354, -17.75314 ], [ -61.20909, -17.75814 ], [ -61.20522, -17.75892 ], [ -61.20145, -17.75693 ], [ -61.19826, -17.7597 ], [ -61.19323, -17.76036 ], [ -61.19323, -17.76326 ], [ -61.18775, -17.7616 ], [ -61.18832, -17.7667 ], [ -61.18615, -17.76705 ], [ -61.18023, -17.7746 ], [ -61.17634, -17.78116 ], [ -61.17783, -17.78795 ], [ -61.18387, -17.79239 ], [ -61.18719, -17.79084 ], [ -61.19095, -17.78494 ], [ -61.19347, -17.7835 ], [ -61.19792, -17.78805 ], [ -61.20453, -17.78906 ], [ -61.20441, -17.7944 ], [ -61.20875, -17.80329 ], [ -61.20635, -17.8093 ], [ -61.20841, -17.81308 ], [ -61.21001, -17.81954 ], [ -61.20875, -17.82776 ], [ -61.20441, -17.83499 ], [ -61.20601, -17.84132 ], [ -61.2132, -17.84422 ], [ -61.21811, -17.8927 ], [ -61.23021, -17.98033 ], [ -61.24002, -18.10421 ], [ -61.25645, -18.20864 ], [ -61.25794, -18.21431 ], [ -61.26364, -18.24656 ], [ -61.28852, -18.24356 ], [ -61.64928, -18.18873 ], [ -61.77608, -18.16816 ], [ -61.83338, -18.15781 ], [ -62.39784, -18.06707 ], [ -62.56093, -18.04861 ], [ -62.61663, -18.0415 ], [ -62.68419, -18.0336 ], [ -62.74855, -18.02514 ], [ -62.81041, -18.01815 ], [ -62.81246, -18.00491 ], [ -62.81338, -17.99401 ], [ -62.81315, -17.98555 ], [ -62.8071, -17.97989 ], [ -62.79501, -17.97777 ], [ -62.78952, -17.97578 ], [ -62.7813, -17.97066 ], [ -62.77937, -17.96866 ], [ -62.78085, -17.95764 ], [ -62.78701, -17.94786 ], [ -62.79033, -17.94431 ], [ -62.7925, -17.93929 ], [ -62.79352, -17.93151 ], [ -62.79831, -17.92384 ], [ -62.80961, -17.91706 ], [ -62.81121, -17.91127 ], [ -62.80345, -17.89081 ], [ -62.80288, -17.88637 ], [ -62.79991, -17.88236 ], [ -62.78873, -17.87925 ], [ -62.78211, -17.87413 ], [ -62.7813, -17.8718 ], [ -62.78245, -17.86623 ], [ -62.78177, -17.85156 ], [ -62.7772, -17.83733 ], [ -62.7772, -17.83165 ], [ -62.75791, -17.79885 ], [ -62.75449, -17.76115 ], [ -62.75997, -17.72377 ], [ -62.77732, -17.69031 ], [ -62.78234, -17.65295 ], [ -62.78405, -17.64727 ], [ -62.78575, -17.63438 ], [ -62.7829, -17.6228 ], [ -62.77913, -17.61002 ], [ -62.77698, -17.60591 ], [ -62.77138, -17.60012 ], [ -62.76613, -17.58656 ], [ -62.76374, -17.57255 ], [ -62.7651, -17.56054 ], [ -62.76772, -17.55608 ], [ -62.77583, -17.55141 ], [ -62.79056, -17.54129 ], [ -62.79135, -17.53662 ], [ -62.79022, -17.53217 ], [ -62.79169, -17.52495 ], [ -62.79056, -17.51683 ], [ -62.7885, -17.51204 ], [ -62.78462, -17.50848 ], [ -62.77469, -17.50293 ], [ -62.77377, -17.49992 ], [ -62.71511, -17.49036 ], [ -62.68989, -17.49293 ], [ -62.65189, -17.52539 ], [ -62.631, -17.52072 ], [ -62.62074, -17.46601 ], [ -62.54027, -17.46144 ], [ -62.45707, -17.44832 ], [ -62.30528, -17.42386 ], [ -62.21501, -17.40829 ], [ -62.15669, -17.39885 ], [ -62.04702, -17.38071 ], [ -61.85232, -17.35214 ], [ -61.77951, -17.34157 ], [ -61.71194, -17.31466 ], [ -61.56859, -17.2575 ], [ -61.54942, -17.26583 ], [ -61.54635, -17.2675 ], [ -61.53984, -17.2734 ], [ -61.53744, -17.27729 ], [ -61.53618, -17.28241 ], [ -61.53105, -17.2843 ], [ -61.52637, -17.28274 ], [ -61.52613, -17.28541 ], [ -61.52192, -17.28508 ], [ -61.51895, -17.28852 ], [ -61.51632, -17.28552 ], [ -61.51415, -17.28718 ], [ -61.51062, -17.28586 ], [ -61.50525, -17.28919 ], [ -61.50046, -17.28953 ], [ -61.49738, -17.2952 ], [ -61.49704, -17.30076 ], [ -61.50674, -17.30275 ], [ -61.50902, -17.31221 ], [ -61.51028, -17.31388 ], [ -61.50936, -17.32033 ], [ -61.50948, -17.32645 ], [ -61.5008, -17.32723 ], [ -61.49646, -17.32445 ], [ -61.49544, -17.32067 ], [ -61.49178, -17.32211 ], [ -61.49282, -17.32622 ], [ -61.49282, -17.33823 ], [ -61.49031, -17.34157 ], [ -61.48916, -17.34624 ], [ -61.48369, -17.34568 ], [ -61.4805, -17.34669 ], [ -61.48084, -17.34212 ], [ -61.47935, -17.34035 ], [ -61.46941, -17.34124 ], [ -61.47171, -17.33389 ], [ -61.46885, -17.33379 ], [ -61.46873, -17.33011 ], [ -61.46292, -17.33101 ], [ -61.45583, -17.33034 ], [ -61.45264, -17.3319 ], [ -61.44864, -17.32612 ], [ -61.44466, -17.32511 ], [ -61.44123, -17.3269 ], [ -61.43883, -17.33112 ], [ -61.44157, -17.33478 ], [ -61.43746, -17.33735 ], [ -61.44579, -17.34913 ], [ -61.44614, -17.35436 ], [ -61.44202, -17.35636 ], [ -61.43952, -17.36003 ], [ -61.43598, -17.3588 ], [ -61.42959, -17.3587 ], [ -61.42263, -17.35425 ], [ -61.42114, -17.35191 ], [ -61.42514, -17.34769 ], [ -61.42354, -17.34302 ], [ -61.42114, -17.34413 ], [ -61.41806, -17.34235 ], [ -61.41224, -17.34169 ], [ -61.40973, -17.3399 ], [ -61.39958, -17.34212 ], [ -61.39958, -17.34868 ], [ -61.39707, -17.34858 ], [ -61.39432, -17.34302 ], [ -61.39124, -17.34457 ], [ -61.386, -17.34335 ], [ -61.38417, -17.34134 ], [ -61.37846, -17.34469 ], [ -61.37264, -17.34457 ], [ -61.36774, -17.34601 ], [ -61.36625, -17.34979 ], [ -61.35769, -17.35557 ], [ -61.3538, -17.35436 ], [ -61.35165, -17.36269 ], [ -61.35199, -17.36648 ], [ -61.3489, -17.37204 ], [ -61.34605, -17.36925 ], [ -61.34126, -17.36804 ], [ -61.33988, -17.37114 ], [ -61.33326, -17.3746 ], [ -61.3303, -17.3747 ], [ -61.32698, -17.37204 ], [ -61.32677, -17.36981 ], [ -61.31729, -17.36892 ], [ -61.3101, -17.37081 ], [ -61.30736, -17.37281 ], [ -61.30827, -17.37593 ], [ -61.30576, -17.37949 ], [ -61.3021, -17.3805 ], [ -61.30029, -17.38383 ], [ -61.2972, -17.38583 ], [ -61.29252, -17.38649 ], [ -61.29229, -17.38883 ], [ -61.28693, -17.39406 ], [ -61.28237, -17.39461 ], [ -61.28133, -17.39739 ], [ -61.27415, -17.39773 ], [ -61.26901, -17.39317 ], [ -61.2665, -17.39451 ], [ -61.26684, -17.3985 ], [ -61.26377, -17.40084 ], [ -61.25874, -17.39751 ], [ -61.25634, -17.39717 ], [ -61.25429, -17.40251 ] ] ] } },
{ "type": "Feature", "properties": { "sigep": "1705", "nombre": "El Torno", "ambito": "núcleo" }, "geometry": { "type": "Polygon", "coordinates": [ [ [ -63.36347, -17.93674 ], [ -63.358, -17.94519 ], [ -63.35263, -17.9482 ], [ -63.35891, -17.95743 ], [ -63.35514, -17.95953 ], [ -63.354, -17.96654 ], [ -63.3524, -17.96798 ], [ -63.35285, -17.97844 ], [ -63.35057, -17.99012 ], [ -63.34476, -17.99567 ], [ -63.34406, -17.99824 ], [ -63.34635, -18.00057 ], [ -63.34635, -18.00602 ], [ -63.3427, -18.01792 ], [ -63.33974, -18.02003 ], [ -63.33357, -18.01747 ], [ -63.32433, -18.01202 ], [ -63.32352, -18.01503 ], [ -63.31748, -18.02115 ], [ -63.31417, -18.02081 ], [ -63.30652, -18.02626 ], [ -63.3047, -18.02659 ], [ -63.30036, -18.0157 ], [ -63.29283, -18.0177 ], [ -63.28427, -18.01848 ], [ -63.27959, -18.02014 ], [ -63.28198, -18.02681 ], [ -63.27902, -18.02938 ], [ -63.27057, -18.03216 ], [ -63.27125, -18.03705 ], [ -63.27593, -18.04238 ], [ -63.28027, -18.04183 ], [ -63.28723, -18.0455 ], [ -63.29032, -18.04816 ], [ -63.29294, -18.05873 ], [ -63.29453, -18.06863 ], [ -63.3007, -18.07697 ], [ -63.30013, -18.08354 ], [ -63.29807, -18.08664 ], [ -63.29887, -18.09376 ], [ -63.29683, -18.09555 ], [ -63.29488, -18.10388 ], [ -63.30036, -18.10277 ], [ -63.31303, -18.10489 ], [ -63.31782, -18.10477 ], [ -63.32067, -18.10633 ], [ -63.33493, -18.10777 ], [ -63.3411, -18.112 ], [ -63.3419, -18.11378 ], [ -63.35696, -18.1249 ], [ -63.35617, -18.13068 ], [ -63.35046, -18.13724 ], [ -63.34921, -18.14025 ], [ -63.34989, -18.14492 ], [ -63.34863, -18.14747 ], [ -63.34395, -18.14903 ], [ -63.33916, -18.15537 ], [ -63.33585, -18.15781 ], [ -63.33563, -18.16316 ], [ -63.33791, -18.1647 ], [ -63.34178, -18.17205 ], [ -63.34955, -18.17383 ], [ -63.35583, -18.17706 ], [ -63.35845, -18.18395 ], [ -63.36735, -18.18439 ], [ -63.3693, -18.18873 ], [ -63.3726, -18.19084 ], [ -63.3783, -18.19196 ], [ -63.38322, -18.19173 ], [ -63.38573, -18.19529 ], [ -63.38424, -18.20041 ], [ -63.38801, -18.20508 ], [ -63.39828, -18.21286 ], [ -63.39954, -18.21487 ], [ -63.39874, -18.21876 ], [ -63.40923, -18.22165 ], [ -63.41723, -18.21909 ], [ -63.42316, -18.21598 ], [ -63.43081, -18.21775 ], [ -63.43628, -18.22087 ], [ -63.43982, -18.22565 ], [ -63.44302, -18.22665 ], [ -63.44803, -18.23198 ], [ -63.45569, -18.23844 ], [ -63.46127, -18.24144 ], [ -63.46504, -18.24245 ], [ -63.47201, -18.24589 ], [ -63.47201, -18.24957 ], [ -63.48251, -18.25467 ], [ -63.49106, -18.26557 ], [ -63.51411, -18.28003 ], [ -63.53067, -18.24823 ], [ -63.53352, -18.22676 ], [ -63.53661, -18.21431 ], [ -63.53672, -18.20174 ], [ -63.52165, -18.18106 ], [ -63.54836, -18.15793 ], [ -63.55509, -18.13924 ], [ -63.55874, -18.1378 ], [ -63.56228, -18.13835 ], [ -63.56958, -18.12367 ], [ -63.56821, -18.11289 ], [ -63.57164, -18.109 ], [ -63.57358, -18.09977 ], [ -63.57221, -18.09076 ], [ -63.57437, -18.08309 ], [ -63.57392, -18.07786 ], [ -63.57883, -18.06595 ], [ -63.57883, -18.06085 ], [ -63.58043, -18.05729 ], [ -63.5842, -18.03827 ], [ -63.59663, -18.03204 ], [ -63.61557, -18.01815 ], [ -63.61672, -18.01626 ], [ -63.61672, -18.01058 ], [ -63.61489, -18.00614 ], [ -63.615, -18.00035 ], [ -63.61763, -17.99012 ], [ -63.6174, -17.98378 ], [ -63.62151, -17.97878 ], [ -63.62106, -17.96776 ], [ -63.62242, -17.96599 ], [ -63.62174, -17.95932 ], [ -63.62596, -17.95286 ], [ -63.63166, -17.95108 ], [ -63.63509, -17.94731 ], [ -63.64045, -17.95009 ], [ -63.64422, -17.94474 ], [ -63.64434, -17.93952 ], [ -63.63669, -17.93851 ], [ -63.63326, -17.93563 ], [ -63.63166, -17.93218 ], [ -63.62562, -17.92985 ], [ -63.61866, -17.92217 ], [ -63.61147, -17.91895 ], [ -63.60748, -17.9185 ], [ -63.60108, -17.9136 ], [ -63.60097, -17.90928 ], [ -63.60246, -17.90627 ], [ -63.59789, -17.90071 ], [ -63.59093, -17.89737 ], [ -63.58099, -17.89515 ], [ -63.57643, -17.88925 ], [ -63.57062, -17.88692 ], [ -63.56536, -17.88269 ], [ -63.56662, -17.88003 ], [ -63.55772, -17.87658 ], [ -63.55487, -17.8798 ], [ -63.5527, -17.87892 ], [ -63.55041, -17.87125 ], [ -63.54653, -17.87125 ], [ -63.5447, -17.86913 ], [ -63.54482, -17.8639 ], [ -63.54767, -17.86201 ], [ -63.54504, -17.85812 ], [ -63.54333, -17.85278 ], [ -63.54116, -17.85267 ], [ -63.54106, -17.84644 ], [ -63.53842, -17.84632 ], [ -63.53661, -17.84155 ], [ -63.53717, -17.83832 ], [ -63.53329, -17.83432 ], [ -63.53329, -17.8311 ], [ -63.53717, -17.82409 ], [ -63.52838, -17.8153 ], [ -63.52565, -17.81341 ], [ -63.51982, -17.81275 ], [ -63.51675, -17.80752 ], [ -63.5099, -17.81252 ], [ -63.50658, -17.81876 ], [ -63.49757, -17.82921 ], [ -63.4849, -17.83377 ], [ -63.48193, -17.87435 ], [ -63.47349, -17.89992 ], [ -63.47166, -17.91105 ], [ -63.46893, -17.9135 ], [ -63.46915, -17.91995 ], [ -63.47052, -17.92506 ], [ -63.46915, -17.93063 ], [ -63.46744, -17.93263 ], [ -63.45888, -17.93663 ], [ -63.45603, -17.93985 ], [ -63.44587, -17.93886 ], [ -63.44313, -17.9403 ], [ -63.43069, -17.94151 ], [ -63.42647, -17.93974 ], [ -63.42362, -17.94063 ], [ -63.4187, -17.94764 ], [ -63.41334, -17.94575 ], [ -63.4081, -17.9453 ], [ -63.39954, -17.94186 ], [ -63.39416, -17.94252 ], [ -63.38995, -17.9374 ], [ -63.3855, -17.93763 ], [ -63.38207, -17.93596 ], [ -63.37534, -17.93696 ], [ -63.37066, -17.93207 ], [ -63.3686, -17.93229 ], [ -63.36347, -17.93674 ] ] ] } },
{ "type": "Feature", "properties": { "sigep": "1703", "nombre": "Porongo", "ambito": "núcleo" }, "geometry": { "type": "Polygon", "coordinates": [ [ [ -63.42966, -17.56042 ], [ -63.41985, -17.56576 ], [ -63.4154, -17.56342 ], [ -63.40638, -17.56054 ], [ -63.4041, -17.56109 ], [ -63.40329, -17.56599 ], [ -63.39965, -17.56509 ], [ -63.39577, -17.5662 ], [ -63.38744, -17.56531 ], [ -63.38458, -17.57087 ], [ -63.37626, -17.56909 ], [ -63.3726, -17.56998 ], [ -63.36518, -17.57533 ], [ -63.36393, -17.5831 ], [ -63.36176, -17.58878 ], [ -63.36176, -17.59211 ], [ -63.35468, -17.60291 ], [ -63.35377, -17.61002 ], [ -63.35434, -17.61959 ], [ -63.35674, -17.62381 ], [ -63.32992, -17.63292 ], [ -63.32809, -17.62469 ], [ -63.33346, -17.61959 ], [ -63.33391, -17.61247 ], [ -63.3298, -17.61303 ], [ -63.3242, -17.61558 ], [ -63.32318, -17.61258 ], [ -63.31862, -17.61147 ], [ -63.31645, -17.61291 ], [ -63.31554, -17.61735 ], [ -63.31041, -17.62002 ], [ -63.30824, -17.61969 ], [ -63.30583, -17.62358 ], [ -63.30149, -17.62581 ], [ -63.30058, -17.63115 ], [ -63.29568, -17.63337 ], [ -63.27331, -17.62259 ], [ -63.26646, -17.62025 ], [ -63.26258, -17.61447 ], [ -63.26007, -17.61313 ], [ -63.25688, -17.6068 ], [ -63.24809, -17.60324 ], [ -63.23907, -17.60779 ], [ -63.21522, -17.61535 ], [ -63.20609, -17.61135 ], [ -63.19982, -17.61135 ], [ -63.20152, -17.6168 ], [ -63.20004, -17.6277 ], [ -63.19799, -17.63382 ], [ -63.19593, -17.65139 ], [ -63.19582, -17.65739 ], [ -63.19742, -17.66206 ], [ -63.19982, -17.66484 ], [ -63.20427, -17.66729 ], [ -63.20689, -17.67118 ], [ -63.2078, -17.67819 ], [ -63.20449, -17.68519 ], [ -63.20278, -17.69109 ], [ -63.19935, -17.69742 ], [ -63.19765, -17.70621 ], [ -63.19844, -17.71199 ], [ -63.20141, -17.71978 ], [ -63.20233, -17.72422 ], [ -63.20449, -17.72712 ], [ -63.20814, -17.73679 ], [ -63.21123, -17.74235 ], [ -63.2118, -17.74724 ], [ -63.2111, -17.75937 ], [ -63.21191, -17.76248 ], [ -63.2247, -17.7755 ], [ -63.22595, -17.78217 ], [ -63.22915, -17.78928 ], [ -63.23188, -17.79262 ], [ -63.23508, -17.7994 ], [ -63.24547, -17.80541 ], [ -63.25037, -17.81086 ], [ -63.25425, -17.81319 ], [ -63.25905, -17.81442 ], [ -63.26544, -17.81619 ], [ -63.27069, -17.81975 ], [ -63.2797, -17.83143 ], [ -63.28176, -17.8361 ], [ -63.28187, -17.84165 ], [ -63.28323, -17.84466 ], [ -63.28506, -17.85868 ], [ -63.28553, -17.86946 ], [ -63.28849, -17.87413 ], [ -63.29317, -17.87713 ], [ -63.29898, -17.87758 ], [ -63.30538, -17.87524 ], [ -63.31668, -17.87357 ], [ -63.32935, -17.87668 ], [ -63.33299, -17.87869 ], [ -63.34008, -17.88525 ], [ -63.34704, -17.89727 ], [ -63.34863, -17.9056 ], [ -63.34887, -17.9115 ], [ -63.35115, -17.92016 ], [ -63.3573, -17.9294 ], [ -63.36347, -17.93674 ], [ -63.3686, -17.93229 ], [ -63.37066, -17.93207 ], [ -63.37534, -17.93696 ], [ -63.38207, -17.93596 ], [ -63.3855, -17.93763 ], [ -63.38995, -17.9374 ], [ -63.39416, -17.94252 ], [ -63.39954, -17.94186 ], [ -63.4081, -17.9453 ], [ -63.41334, -17.94575 ], [ -63.4187, -17.94764 ], [ -63.42362, -17.94063 ], [ -63.42647, -17.93974 ], [ -63.43069, -17.94151 ], [ -63.44313, -17.9403 ], [ -63.44587, -17.93886 ], [ -63.45603, -17.93985 ], [ -63.45888, -17.93663 ], [ -63.46744, -17.93263 ], [ -63.46915, -17.93063 ], [ -63.47052, -17.92506 ], [ -63.46915, -17.91995 ], [ -63.46893, -17.9135 ], [ -63.47166, -17.91105 ], [ -63.47349, -17.89992 ], [ -63.48193, -17.87435 ], [ -63.4849, -17.83377 ], [ -63.49757, -17.82921 ], [ -63.50658, -17.81876 ], [ -63.5099, -17.81252 ], [ -63.51675, -17.80752 ], [ -63.52484, -17.80152 ], [ -63.52644, -17.79362 ], [ -63.518, -17.77182 ], [ -63.51788, -17.76615 ], [ -63.51537, -17.76304 ], [ -63.50864, -17.74524 ], [ -63.50236, -17.73802 ], [ -63.49951, -17.73179 ], [ -63.49483, -17.72811 ], [ -63.4946, -17.72377 ], [ -63.49061, -17.71966 ], [ -63.49004, -17.71355 ], [ -63.48719, -17.70522 ], [ -63.48707, -17.70131 ], [ -63.48513, -17.69942 ], [ -63.48581, -17.69364 ], [ -63.47931, -17.6902 ], [ -63.47885, -17.68687 ], [ -63.47576, -17.68253 ], [ -63.47327, -17.68175 ], [ -63.47235, -17.67696 ], [ -63.46835, -17.67574 ], [ -63.46767, -17.66984 ], [ -63.46333, -17.66774 ], [ -63.46516, -17.6625 ], [ -63.46482, -17.65238 ], [ -63.46401, -17.64861 ], [ -63.4647, -17.63504 ], [ -63.45842, -17.63059 ], [ -63.46105, -17.6277 ], [ -63.46322, -17.62247 ], [ -63.45786, -17.62125 ], [ -63.4566, -17.61881 ], [ -63.45203, -17.61535 ], [ -63.44428, -17.61525 ], [ -63.44336, -17.61135 ], [ -63.44781, -17.6039 ], [ -63.44598, -17.60057 ], [ -63.44164, -17.59834 ], [ -63.43594, -17.59756 ], [ -63.43605, -17.58944 ], [ -63.43264, -17.58533 ], [ -63.43526, -17.57621 ], [ -63.43377, -17.56943 ], [ -63.43526, -17.56165 ], [ -63.42966, -17.56042 ] ] ] } },
{ "type": "Feature", "properties": { "sigep": "1701", "nombre": "Santa Cruz de la Sierra", "ambito": "núcleo" }, "geometry": { "type": "Polygon", "coordinates": [ [ [ -62.78234, -17.65295 ], [ -62.78952, -17.65873 ], [ -62.79375, -17.66451 ], [ -62.80003, -17.66484 ], [ -62.80037, -17.66229 ], [ -62.80584, -17.66284 ], [ -62.80642, -17.65728 ], [ -62.8151, -17.65939 ], [ -62.81942, -17.65929 ], [ -62.82217, -17.66095 ], [ -62.82342, -17.66507 ], [ -62.83015, -17.66273 ], [ -62.84032, -17.66406 ], [ -62.85811, -17.66918 ], [ -62.86337, -17.66139 ], [ -62.88482, -17.66118 ], [ -62.89909, -17.66307 ], [ -62.89943, -17.66095 ], [ -62.90833, -17.66229 ], [ -62.91324, -17.66429 ], [ -62.91564, -17.6625 ], [ -62.91871, -17.66406 ], [ -62.92032, -17.6674 ], [ -62.92339, -17.66863 ], [ -62.92648, -17.66161 ], [ -62.93048, -17.66307 ], [ -62.93252, -17.65773 ], [ -62.94531, -17.66295 ], [ -62.9525, -17.65606 ], [ -62.95478, -17.65717 ], [ -62.9606, -17.65217 ], [ -62.97338, -17.65005 ], [ -62.9872, -17.64939 ], [ -62.98982, -17.65116 ], [ -63.00135, -17.65372 ], [ -63.0026, -17.65028 ], [ -63.0074, -17.65472 ], [ -63.01881, -17.66284 ], [ -63.02485, -17.65116 ], [ -63.03741, -17.65795 ], [ -63.05578, -17.67107 ], [ -63.06263, -17.66173 ], [ -63.0648, -17.66429 ], [ -63.07084, -17.66873 ], [ -63.07153, -17.67307 ], [ -63.0616, -17.68308 ], [ -63.06902, -17.69298 ], [ -63.06548, -17.70065 ], [ -63.0705, -17.70466 ], [ -63.07461, -17.70421 ], [ -63.08523, -17.70843 ], [ -63.07655, -17.72134 ], [ -63.07027, -17.716 ], [ -63.06708, -17.72034 ], [ -63.07416, -17.73434 ], [ -63.07278, -17.73412 ], [ -63.06982, -17.74346 ], [ -63.06616, -17.75191 ], [ -63.06833, -17.75236 ], [ -63.0648, -17.76026 ], [ -63.06491, -17.76425 ], [ -63.06754, -17.76437 ], [ -63.0672, -17.76849 ], [ -63.05909, -17.77104 ], [ -63.05967, -17.77672 ], [ -63.05133, -17.77716 ], [ -63.04882, -17.77404 ], [ -63.04734, -17.78161 ], [ -63.06092, -17.78895 ], [ -63.05396, -17.79029 ], [ -63.05452, -17.80662 ], [ -63.04745, -17.80685 ], [ -63.0479, -17.81364 ], [ -63.05703, -17.81096 ], [ -63.05716, -17.81864 ], [ -63.06206, -17.82464 ], [ -63.05727, -17.8262 ], [ -63.05282, -17.82476 ], [ -63.0519, -17.83309 ], [ -63.04837, -17.83544 ], [ -63.04722, -17.84177 ], [ -63.04243, -17.84099 ], [ -63.039, -17.84332 ], [ -63.0341, -17.84243 ], [ -63.03193, -17.84511 ], [ -63.02372, -17.84689 ], [ -63.01481, -17.84667 ], [ -63.01208, -17.85812 ], [ -62.99678, -17.85734 ], [ -62.99678, -17.86913 ], [ -62.99507, -17.86957 ], [ -62.98879, -17.86635 ], [ -62.97281, -17.87269 ], [ -62.97715, -17.848 ], [ -62.97338, -17.84466 ], [ -62.96847, -17.84299 ], [ -62.96905, -17.8371 ], [ -62.96266, -17.84144 ], [ -62.9614, -17.84066 ], [ -62.95604, -17.86 ], [ -62.94131, -17.85644 ], [ -62.9444, -17.84377 ], [ -62.94006, -17.84321 ], [ -62.93321, -17.84821 ], [ -62.92888, -17.853 ], [ -62.92568, -17.85422 ], [ -62.91792, -17.849 ], [ -62.89898, -17.85267 ], [ -62.89121, -17.85378 ], [ -62.88334, -17.85 ], [ -62.87546, -17.85045 ], [ -62.86782, -17.85177 ], [ -62.8588, -17.85177 ], [ -62.83677, -17.84488 ], [ -62.83358, -17.84122 ], [ -62.82902, -17.83821 ], [ -62.82627, -17.83955 ], [ -62.82342, -17.84377 ], [ -62.82091, -17.84511 ], [ -62.81795, -17.84144 ], [ -62.81578, -17.83655 ], [ -62.80995, -17.83332 ], [ -62.80653, -17.83354 ], [ -62.80322, -17.8361 ], [ -62.79158, -17.83521 ], [ -62.78907, -17.83264 ], [ -62.78485, -17.83143 ], [ -62.7772, -17.83165 ], [ -62.7772, -17.83733 ], [ -62.78177, -17.85156 ], [ -62.78245, -17.86623 ], [ -62.7813, -17.8718 ], [ -62.78211, -17.87413 ], [ -62.78873, -17.87925 ], [ -62.79991, -17.88236 ], [ -62.80288, -17.88637 ], [ -62.80345, -17.89081 ], [ -62.81121, -17.91127 ], [ -62.80961, -17.91706 ], [ -62.79831, -17.92384 ], [ -62.79352, -17.93151 ], [ -62.7925, -17.93929 ], [ -62.79033, -17.94431 ], [ -62.78701, -17.94786 ], [ -62.78085, -17.95764 ], [ -62.77937, -17.96866 ], [ -62.7813, -17.97066 ], [ -62.78952, -17.97578 ], [ -62.79501, -17.97777 ], [ -62.8071, -17.97989 ], [ -62.81315, -17.98555 ], [ -62.81338, -17.99401 ], [ -62.81246, -18.00491 ], [ -62.81041, -18.01815 ], [ -62.82421, -18.02626 ], [ -62.89053, -18.02671 ], [ -62.89087, -18.02259 ], [ -62.97384, -18.02448 ], [ -62.98115, -18.01424 ], [ -62.98137, -18.01058 ], [ -62.98582, -17.99612 ], [ -62.98765, -17.99301 ], [ -62.98845, -17.98711 ], [ -62.99028, -17.983 ], [ -62.99405, -17.98022 ], [ -63.00499, -17.97711 ], [ -63.00933, -17.98055 ], [ -63.01789, -17.97878 ], [ -63.01755, -17.97422 ], [ -63.02246, -17.97611 ], [ -63.02725, -17.97555 ], [ -63.02976, -17.9731 ], [ -63.03432, -17.973 ], [ -63.03536, -17.96965 ], [ -63.04038, -17.96877 ], [ -63.04106, -17.9642 ], [ -63.04665, -17.96498 ], [ -63.04996, -17.96099 ], [ -63.05452, -17.95887 ], [ -63.05943, -17.95264 ], [ -63.0615, -17.95186 ], [ -63.06526, -17.94731 ], [ -63.07325, -17.94608 ], [ -63.08123, -17.94908 ], [ -63.08672, -17.94564 ], [ -63.09151, -17.94386 ], [ -63.09824, -17.93796 ], [ -63.10475, -17.93518 ], [ -63.11011, -17.9353 ], [ -63.11307, -17.93384 ], [ -63.11947, -17.93308 ], [ -63.1222, -17.9294 ], [ -63.12505, -17.92962 ], [ -63.13397, -17.92684 ], [ -63.14731, -17.91739 ], [ -63.15496, -17.91928 ], [ -63.15885, -17.91829 ], [ -63.16215, -17.91327 ], [ -63.16615, -17.91228 ], [ -63.17151, -17.9086 ], [ -63.17528, -17.90404 ], [ -63.18509, -17.89937 ], [ -63.18646, -17.89671 ], [ -63.19433, -17.88803 ], [ -63.19948, -17.8847 ], [ -63.20152, -17.88213 ], [ -63.2062, -17.88203 ], [ -63.2094, -17.88069 ], [ -63.21785, -17.87368 ], [ -63.22538, -17.87291 ], [ -63.22651, -17.86935 ], [ -63.22651, -17.85512 ], [ -63.228, -17.84788 ], [ -63.2393, -17.83921 ], [ -63.24398, -17.83488 ], [ -63.25037, -17.83299 ], [ -63.25288, -17.82976 ], [ -63.25322, -17.8212 ], [ -63.25767, -17.81752 ], [ -63.25905, -17.81442 ], [ -63.25425, -17.81319 ], [ -63.25037, -17.81086 ], [ -63.24547, -17.80541 ], [ -63.23508, -17.7994 ], [ -63.23188, -17.79262 ], [ -63.22915, -17.78928 ], [ -63.22595, -17.78217 ], [ -63.2247, -17.7755 ], [ -63.21191, -17.76248 ], [ -63.2111, -17.75937 ], [ -63.2118, -17.74724 ], [ -63.21123, -17.74235 ], [ -63.20814, -17.73679 ], [ -63.20449, -17.72712 ], [ -63.20233, -17.72422 ], [ -63.20141, -17.71978 ], [ -63.19844, -17.71199 ], [ -63.19765, -17.70621 ], [ -63.19935, -17.69742 ], [ -63.20278, -17.69109 ], [ -63.20449, -17.68519 ], [ -63.2078, -17.67819 ], [ -63.20689, -17.67118 ], [ -63.20427, -17.66729 ], [ -63.19982, -17.66484 ], [ -63.19742, -17.66206 ], [ -63.19582, -17.65739 ], [ -63.19593, -17.65139 ], [ -63.19799, -17.63382 ], [ -63.20004, -17.6277 ], [ -63.20152, -17.6168 ], [ -63.19982, -17.61135 ], [ -63.19765, -17.60312 ], [ -63.19822, -17.59312 ], [ -63.19479, -17.59645 ], [ -63.19297, -17.60157 ], [ -63.1932, -17.60846 ], [ -63.18852, -17.61157 ], [ -63.18897, -17.62225 ], [ -63.18669, -17.62559 ], [ -63.17824, -17.62893 ], [ -63.17379, -17.62971 ], [ -63.16911, -17.63259 ], [ -63.1666, -17.63759 ], [ -63.16581, -17.64193 ], [ -63.16272, -17.64616 ], [ -63.15747, -17.64627 ], [ -63.15872, -17.67418 ], [ -63.1577, -17.67529 ], [ -63.144, -17.67029 ], [ -63.0947, -17.66974 ], [ -63.08477, -17.65839 ], [ -63.08546, -17.65394 ], [ -63.07529, -17.65427 ], [ -63.07039, -17.65106 ], [ -63.06537, -17.65172 ], [ -63.06229, -17.64905 ], [ -63.05396, -17.64438 ], [ -63.05328, -17.63983 ], [ -63.04996, -17.63693 ], [ -63.04973, -17.63047 ], [ -63.04528, -17.63059 ], [ -63.03147, -17.62636 ], [ -63.02304, -17.62537 ], [ -63.01173, -17.62303 ], [ -63.00248, -17.62381 ], [ -62.9856, -17.61324 ], [ -62.98331, -17.60702 ], [ -62.97121, -17.599 ], [ -62.95889, -17.59711 ], [ -62.91586, -17.58255 ], [ -62.90296, -17.58378 ], [ -62.88163, -17.5671 ], [ -62.84933, -17.53974 ], [ -62.84157, -17.53752 ], [ -62.79022, -17.53217 ], [ -62.79135, -17.53662 ], [ -62.79056, -17.54129 ], [ -62.77583, -17.55141 ], [ -62.76772, -17.55608 ], [ -62.7651, -17.56054 ], [ -62.76374, -17.57255 ], [ -62.76613, -17.58656 ], [ -62.77138, -17.60012 ], [ -62.77698, -17.60591 ], [ -62.77913, -17.61002 ], [ -62.7829, -17.6228 ], [ -62.78575, -17.63438 ], [ -62.78405, -17.64727 ], [ -62.78234, -17.65295 ] ] ] } },
{ "type": "Feature", "properties": { "sigep": "1704", "nombre": "La Guardia", "ambito": "núcleo" }, "geometry": { "type": "Polygon", "coordinates": [ [ [ -63.25905, -17.81442 ], [ -63.25767, -17.81752 ], [ -63.25322, -17.8212 ], [ -63.25288, -17.82976 ], [ -63.25037, -17.83299 ], [ -63.24398, -17.83488 ], [ -63.2393, -17.83921 ], [ -63.228, -17.84788 ], [ -63.22651, -17.85512 ], [ -63.22651, -17.86935 ], [ -63.22538, -17.87291 ], [ -63.21785, -17.87368 ], [ -63.2094, -17.88069 ], [ -63.2062, -17.88203 ], [ -63.20152, -17.88213 ], [ -63.19948, -17.8847 ], [ -63.19433, -17.88803 ], [ -63.18646, -17.89671 ], [ -63.18509, -17.89937 ], [ -63.17528, -17.90404 ], [ -63.17151, -17.9086 ], [ -63.16615, -17.91228 ], [ -63.16215, -17.91327 ], [ -63.15885, -17.91829 ], [ -63.15496, -17.91928 ], [ -63.14731, -17.91739 ], [ -63.13397, -17.92684 ], [ -63.12505, -17.92962 ], [ -63.1222, -17.9294 ], [ -63.11947, -17.93308 ], [ -63.11307, -17.93384 ], [ -63.11011, -17.9353 ], [ -63.10475, -17.93518 ], [ -63.09824, -17.93796 ], [ -63.09151, -17.94386 ], [ -63.08672, -17.94564 ], [ -63.08123, -17.94908 ], [ -63.07325, -17.94608 ], [ -63.06526, -17.94731 ], [ -63.0615, -17.95186 ], [ -63.05943, -17.95264 ], [ -63.05452, -17.95887 ], [ -63.04996, -17.96099 ], [ -63.04665, -17.96498 ], [ -63.04106, -17.9642 ], [ -63.04038, -17.96877 ], [ -63.03536, -17.96965 ], [ -63.03432, -17.973 ], [ -63.02976, -17.9731 ], [ -63.02725, -17.97555 ], [ -63.02246, -17.97611 ], [ -63.01755, -17.97422 ], [ -63.01789, -17.97878 ], [ -63.00933, -17.98055 ], [ -63.00499, -17.97711 ], [ -62.99405, -17.98022 ], [ -62.99028, -17.983 ], [ -62.98845, -17.98711 ], [ -62.98765, -17.99301 ], [ -62.98582, -17.99612 ], [ -62.98137, -18.01058 ], [ -62.98115, -18.01424 ], [ -62.97384, -18.02448 ], [ -62.97384, -18.02459 ], [ -63.05041, -18.02626 ], [ -63.08614, -18.02693 ], [ -63.08797, -18.01626 ], [ -63.0963, -18.02726 ], [ -63.16888, -18.02948 ], [ -63.16934, -18.03393 ], [ -63.18109, -18.03282 ], [ -63.18212, -18.0446 ], [ -63.17299, -18.04538 ], [ -63.17322, -18.05929 ], [ -63.17539, -18.05929 ], [ -63.17516, -18.0683 ], [ -63.17413, -18.07208 ], [ -63.16364, -18.07241 ], [ -63.14982, -18.07208 ], [ -63.14789, -18.10999 ], [ -63.13384, -18.10966 ], [ -63.13111, -18.1725 ], [ -63.16249, -18.17328 ], [ -63.16798, -18.17283 ], [ -63.16626, -18.19029 ], [ -63.19148, -18.19084 ], [ -63.19205, -18.17316 ], [ -63.21522, -18.17406 ], [ -63.21568, -18.20241 ], [ -63.26292, -18.21008 ], [ -63.26282, -18.2152 ], [ -63.2765, -18.21631 ], [ -63.2748, -18.23021 ], [ -63.29694, -18.23032 ], [ -63.30162, -18.2321 ], [ -63.30024, -18.25 ], [ -63.31748, -18.25123 ], [ -63.32318, -18.25323 ], [ -63.3306, -18.2391 ], [ -63.35138, -18.25245 ], [ -63.35822, -18.2559 ], [ -63.35959, -18.25434 ], [ -63.36427, -18.25423 ], [ -63.36747, -18.24834 ], [ -63.38253, -18.25668 ], [ -63.39668, -18.26212 ], [ -63.42145, -18.27047 ], [ -63.43264, -18.27392 ], [ -63.43343, -18.27246 ], [ -63.45078, -18.27869 ], [ -63.45854, -18.28092 ], [ -63.45877, -18.27069 ], [ -63.47646, -18.26746 ], [ -63.48696, -18.26757 ], [ -63.49106, -18.26557 ], [ -63.48251, -18.25467 ], [ -63.47201, -18.24957 ], [ -63.47201, -18.24589 ], [ -63.46504, -18.24245 ], [ -63.46127, -18.24144 ], [ -63.45569, -18.23844 ], [ -63.44803, -18.23198 ], [ -63.44302, -18.22665 ], [ -63.43982, -18.22565 ], [ -63.43628, -18.22087 ], [ -63.43081, -18.21775 ], [ -63.42316, -18.21598 ], [ -63.41723, -18.21909 ], [ -63.40923, -18.22165 ], [ -63.39874, -18.21876 ], [ -63.39954, -18.21487 ], [ -63.39828, -18.21286 ], [ -63.38801, -18.20508 ], [ -63.38424, -18.20041 ], [ -63.38573, -18.19529 ], [ -63.38322, -18.19173 ], [ -63.3783, -18.19196 ], [ -63.3726, -18.19084 ], [ -63.3693, -18.18873 ], [ -63.36735, -18.18439 ], [ -63.35845, -18.18395 ], [ -63.35583, -18.17706 ], [ -63.34955, -18.17383 ], [ -63.34178, -18.17205 ], [ -63.33791, -18.1647 ], [ -63.33563, -18.16316 ], [ -63.33585, -18.15781 ], [ -63.33916, -18.15537 ], [ -63.34395, -18.14903 ], [ -63.34863, -18.14747 ], [ -63.34989, -18.14492 ], [ -63.34921, -18.14025 ], [ -63.35046, -18.13724 ], [ -63.35617, -18.13068 ], [ -63.35696, -18.1249 ], [ -63.3419, -18.11378 ], [ -63.3411, -18.112 ], [ -63.33493, -18.10777 ], [ -63.32067, -18.10633 ], [ -63.31782, -18.10477 ], [ -63.31303, -18.10489 ], [ -63.30036, -18.10277 ], [ -63.29488, -18.10388 ], [ -63.29683, -18.09555 ], [ -63.29887, -18.09376 ], [ -63.29807, -18.08664 ], [ -63.30013, -18.08354 ], [ -63.3007, -18.07697 ], [ -63.29453, -18.06863 ], [ -63.29294, -18.05873 ], [ -63.29032, -18.04816 ], [ -63.28723, -18.0455 ], [ -63.28027, -18.04183 ], [ -63.27593, -18.04238 ], [ -63.27125, -18.03705 ], [ -63.27057, -18.03216 ], [ -63.27902, -18.02938 ], [ -63.28198, -18.02681 ], [ -63.27959, -18.02014 ], [ -63.28427, -18.01848 ], [ -63.29283, -18.0177 ], [ -63.30036, -18.0157 ], [ -63.3047, -18.02659 ], [ -63.30652, -18.02626 ], [ -63.31417, -18.02081 ], [ -63.31748, -18.02115 ], [ -63.32352, -18.01503 ], [ -63.32433, -18.01202 ], [ -63.33357, -18.01747 ], [ -63.33974, -18.02003 ], [ -63.3427, -18.01792 ], [ -63.34635, -18.00602 ], [ -63.34635, -18.00057 ], [ -63.34406, -17.99824 ], [ -63.34476, -17.99567 ], [ -63.35057, -17.99012 ], [ -63.35285, -17.97844 ], [ -63.3524, -17.96798 ], [ -63.354, -17.96654 ], [ -63.35514, -17.95953 ], [ -63.35891, -17.95743 ], [ -63.35263, -17.9482 ], [ -63.358, -17.94519 ], [ -63.36347, -17.93674 ], [ -63.3573, -17.9294 ], [ -63.35115, -17.92016 ], [ -63.34887, -17.9115 ], [ -63.34863, -17.9056 ], [ -63.34704, -17.89727 ], [ -63.34008, -17.88525 ], [ -63.33299, -17.87869 ], [ -63.32935, -17.87668 ], [ -63.31668, -17.87357 ], [ -63.30538, -17.87524 ], [ -63.29898, -17.87758 ], [ -63.29317, -17.87713 ], [ -63.28849, -17.87413 ], [ -63.28553, -17.86946 ], [ -63.28506, -17.85868 ], [ -63.28323, -17.84466 ], [ -63.28187, -17.84165 ], [ -63.28176, -17.8361 ], [ -63.2797, -17.83143 ], [ -63.27069, -17.81975 ], [ -63.26544, -17.81619 ], [ -63.25905, -17.81442 ] ] ] } }
]
}
