{
"type": "FeatureCollection",
"name": "region",
"crs": { "type": "name", "properties": { "name": "urn:ogc:def:crs:OGC:1.3:CRS84" } },
"xy_coordinate_resolution": 1e-05,
"features": [
{ "type": "Feature", "properties": { }, "geometry": { "type": "Polygon", "coordinates": [ [ [ -63.05041, -18.02626 ], [ -63.08614, -18.02693 ], [ -63.08797, -18.01626 ], [ -63.0963, -18.02726 ], [ -63.16888, -18.02948 ], [ -63.16934, -18.03393 ], [ -63.18109, -18.03282 ], [ -63.18212, -18.0446 ], [ -63.17299, -18.04538 ], [ -63.17322, -18.05929 ], [ -63.17539, -18.05929 ], [ -63.17516, -18.0683 ], [ -63.17413, -18.07208 ], [ -63.16364, -18.07241 ], [ -63.14982, -18.07208 ], [ -63.14789, -18.10999 ], [ -63.13384, -18.10966 ], [ -63.13111, -18.1725 ], [ -63.16249, -18.17328 ], [ -63.16798, -18.17283 ], [ -63.16626, -18.19029 ], [ -63.19148, -18.19084 ], [ -63.19205, -18.17316 ], [ -63.21522, -18.17406 ], [ -63.21568, -18.20241 ], [ -63.26292, -18.21008 ], [ -63.26282, -18.2152 ], [ -63.2765, -18.21631 ], [ -63.2748, -18.23021 ], [ -63.29694, -18.23032 ], [ -63.30162, -18.2321 ], [ -63.30024, -18.25 ], [ -63.31748, -18.25123 ], [ -63.32318, -18.25323 ], [ -63.3306, -18.2391 ], [ -63.35138, -18.25245 ], [ -63.35822, -18.2559 ], [ -63.35959, -18.25434 ], [ -63.36427, -18.25423 ], [ -63.36747, -18.24834 ], [ -63.38253, -18.25668 ], [ -63.39668, -18.26212 ], [ -63.42145, -18.27047 ], [ -63.43264, -18.27392 ], [ -63.43343, -18.27246 ], [ -63.45078, -18.27869 ], [ -63.45854, -18.28092 ], [ -63.45877, -18.27069 ], [ -63.47646, -18.26746 ], [ -63.48696, -18.26757 ], [ -63.49106, -18.26557 ], [ -63.51411, -18.28003 ], [ -63.53067, -18.24823 ], [ -63.53352, -18.22676 ], [ -63.53661, -18.21431 ], [ -63.53672, -18.20174 ], [ -63.52165, -18.18106 ], [ -63.54836, -18.15793 ], [ -63.55509, -18.13924 ], [ -63.55874, -18.1378 ], [ -63.56228, -18.13835 ], [ -63.56958, -18.12367 ], [ -63.56821, -18.11289 ], [ -63.57164, -18.109 ], [ -63.57358, -18.09977 ], [ -63.57221, -18.09076 ], [ -63.57437, -18.08309 ], [ -63.57392, -18.07786 ], [ -63.57883, -18.06595 ], [ -63.57883, -18.06085 ], [ -63.58043, -18.05729 ], [ -63.5842, -18.03827 ], [ -63.59663, -18.03204 ], [ -63.61557, -18.01815 ], [ -63.61672, -18.01626 ], [ -63.61672, -18.01058 ], [ -63.61489, -18.00614 ], [ -63.615, -18.00035 ], [ -63.61763, -17.99012 ], [ -63.6174, -17.98378 ], [ -63.62151, -17.97878 ], [ -63.62106, -17.96776 ], [ -63.62242, -17.96599 ], [ -63.62174, -17.95932 ], [ -63.62596, -17.95286 ], [ -63.63166, -17.95108 ], [ -63.63509, -17.94731 ], [ -63.64045, -17.95009 ], [ -63.64422, -17.94474 ], [ -63.64434, -17.93952 ], [ -63.63669, -17.93851 ], [ -63.63326, -17.93563 ], [ -63.63166, -17.93218 ], [ -63.62562, -17.92985 ], [ -63.61866, -17.92217 ], [ -63.61147, -17.91895 ], [ -63.60748, -17.9185 ], [ -63.60108, -17.9136 ], [ -63.60097, -17.90928 ], [ -63.60246, -17.90627 ], [ -63.59789, -17.90071 ], [ -63.59093, -17.89737 ], [ -63.58099, -17.89515 ], [ -63.57643, -17.88925 ], [ -63.57062, -17.88692 ], [ -63.56536, -17.88269 ], [ -63.56662, -17.88003 ], [ -63.55772, -17.87658 ], [ -63.55487, -17.8798 ], [ -63.5527, -17.87892 ], [ -63.55041, -17.87125 ], [ -63.54653, -17.87125 ], [ -63.5447, -17.86913 ], [ -63.54482, -17.8639 ], [ -63.54767, -17.86201 ], [ -63.54504, -17.85812 ], [ -63.54333, -17.85278 ], [ -63.54116, -17.85267 ], [ -63.54106, -17.84644 ], [ -63.53842, -17.84632 ], [ -63.53661, -17.84155 ], [ -63.53717, -17.83832 ], [ -63.53329, -17.83432 ], [ -63.53329, -17.8311 ], [ -63.53717, -17.82409 ], [ -63.52838, -17.8153 ], [ -63.52565, -17.81341 ], [ -63.51982, -17.81275 ], [ -63.51675, -17.80752 ], [ -63.52484, -17.80152 ], [ -63.52644, -17.79362 ], [ -63.518, -17.77182 ], [ -63.51788, -17.76615 ], [ -63.51537, -17.76304 ], [ -63.50864, -17.74524 ], [ -63.50236, -17.73802 ], [ -63.49951, -17.73179 ], [ -63.49483, -17.72811 ], [ -63.4946, -17.72377 ], [ -63.49061, -17.71966 ], [ -63.49004, -17.71355 ], [ -63.48719, -17.70522 ], [ -63.48707, -17.70131 ], [ -63.48513, -17.69942 ], [ -63.48581, -17.69364 ], [ -63.47931, -17.6902 ], [ -63.47885, -17.68687 ], [ -63.47576, -17.68253 ], [ -63.47327, -17.68175 ], [ -63.47235, -17.67696 ], [ -63.46835, -17.67574 ], [ -63.46767, -17.66984 ], [ -63.46333, -17.66774 ], [ -63.46516, -17.6625 ], [ -63.46482, -17.65238 ], [ -63.46401, -17.64861 ], [ -63.4647, -17.63504 ], [ -63.45842, -17.63059 ], [ -63.46105, -17.6277 ], [ -63.46322, -17.62247 ], [ -63.45786, -17.62125 ], [ -63.4566, -17.61881 ], [ -63.45203, -17.61535 ], [ -63.44428, -17.61525 ], [ -63.44336, -17.61135 ], [ -63.44781, -17.6039 ], [ -63.44598, -17.60057 ], [ -63.44164, -17.59834 ], [ -63.43594, -17.59756 ], [ -63.43605, -17.58944 ], [ -63.43264, -17.58533 ], [ -63.43526, -17.57621 ], [ -63.43377, -17.56943 ], [ -63.43526, -17.56165 ], [ -63.42966, -17.56042 ], [ -63.40638, -17.5463 ], [ -63.36781, -17.51638 ], [ -63.32752, -17.47179 ], [ -63.2562, -17.44087 ], [ -63.25801, -17.4332 ], [ -63.25813, -17.42697 ], [ -63.2603, -17.42219 ], [ -63.26578, -17.4174 ], [ -63.27046, -17.41508 ], [ -63.27993, -17.41475 ], [ -63.28587, -17.41629 ], [ -63.29157, -17.41385 ], [ -63.29362, -17.41008 ], [ -63.3023, -17.40541 ], [ -63.30641, -17.39795 ], [ -63.30926, -17.39473 ], [ -63.31245, -17.39339 ], [ -63.31405, -17.38739 ], [ -63.31794, -17.38449 ], [ -63.32444, -17.38394 ], [ -63.32889, -17.38116 ], [ -63.33208, -17.37526 ], [ -63.33197, -17.36614 ], [ -63.33493, -17.35814 ], [ -63.33551, -17.34535 ], [ -63.33437, -17.34169 ], [ -63.32775, -17.32844 ], [ -63.32592, -17.31822 ], [ -63.32569, -17.30954 ], [ -63.32729, -17.30331 ], [ -63.32592, -17.30065 ], [ -63.32124, -17.29876 ], [ -63.31828, -17.29119 ], [ -63.31965, -17.28586 ], [ -63.31919, -17.2814 ], [ -63.31599, -17.27274 ], [ -63.31759, -17.26951 ], [ -63.31451, -17.26394 ], [ -63.31816, -17.26017 ], [ -63.31873, -17.25682 ], [ -63.29008, -17.2546 ], [ -63.24694, -17.25516 ], [ -63.24341, -17.26295 ], [ -63.24238, -17.2704 ], [ -63.23919, -17.27585 ], [ -63.24045, -17.2793 ], [ -63.23611, -17.28519 ], [ -63.23679, -17.28963 ], [ -63.22059, -17.28363 ], [ -63.21499, -17.29164 ], [ -63.20449, -17.29019 ], [ -63.20449, -17.2883 ], [ -63.19696, -17.28975 ], [ -63.18988, -17.29008 ], [ -63.17847, -17.2893 ], [ -63.15187, -17.28263 ], [ -63.13065, -17.28019 ], [ -63.12175, -17.26295 ], [ -63.10713, -17.24349 ], [ -63.08489, -17.22369 ], [ -63.08763, -17.20668 ], [ -63.07473, -17.18744 ], [ -63.07153, -17.14518 ], [ -63.06184, -17.1116 ], [ -63.07735, -17.07835 ], [ -63.03672, -17.03686 ], [ -63.03445, -17.03575 ], [ -63.03376, -17.03976 ], [ -63.0293, -17.04565 ], [ -63.02372, -17.04332 ], [ -63.02178, -17.03931 ], [ -63.01778, -17.03998 ], [ -63.01698, -17.0471 ], [ -63.00808, -17.05477 ], [ -63.00067, -17.05255 ], [ -62.99655, -17.05321 ], [ -62.99244, -17.05132 ], [ -62.98548, -17.05276 ], [ -63.03581, -17.09925 ], [ -63.03924, -17.10449 ], [ -63.02257, -17.12827 ], [ -63.01915, -17.13372 ], [ -63.01378, -17.13551 ], [ -63.0075, -17.13973 ], [ -62.99586, -17.14518 ], [ -62.9889, -17.14985 ], [ -62.98514, -17.15085 ], [ -62.98126, -17.14896 ], [ -62.97624, -17.15408 ], [ -62.97794, -17.1592 ], [ -62.97555, -17.16408 ], [ -62.97864, -17.17031 ], [ -62.97555, -17.17487 ], [ -62.97898, -17.18243 ], [ -62.9783, -17.18555 ], [ -62.97418, -17.18822 ], [ -62.97179, -17.19289 ], [ -62.97087, -17.19978 ], [ -62.96734, -17.20079 ], [ -62.96608, -17.20412 ], [ -62.9654, -17.21112 ], [ -62.96117, -17.21279 ], [ -62.96666, -17.22136 ], [ -62.97179, -17.2308 ], [ -62.97886, -17.24127 ], [ -62.96756, -17.26361 ], [ -62.9533, -17.25962 ], [ -62.94919, -17.25894 ], [ -62.94348, -17.26061 ], [ -62.94029, -17.25939 ], [ -62.93812, -17.26361 ], [ -62.93435, -17.26484 ], [ -62.93492, -17.27206 ], [ -62.93195, -17.27685 ], [ -62.9315, -17.28319 ], [ -62.92876, -17.29319 ], [ -62.92854, -17.29742 ], [ -62.92637, -17.30164 ], [ -62.92807, -17.30654 ], [ -62.92579, -17.31499 ], [ -62.92271, -17.32077 ], [ -62.92443, -17.3319 ], [ -62.92145, -17.33623 ], [ -62.92328, -17.33946 ], [ -62.92294, -17.3428 ], [ -62.92784, -17.34702 ], [ -62.93401, -17.3508 ], [ -62.93412, -17.35536 ], [ -62.93572, -17.35691 ], [ -62.93857, -17.3647 ], [ -62.94371, -17.36915 ], [ -62.95067, -17.37659 ], [ -62.95306, -17.38149 ], [ -62.95706, -17.38416 ], [ -62.95832, -17.39173 ], [ -62.95523, -17.4014 ], [ -62.95604, -17.40829 ], [ -62.94942, -17.41697 ], [ -62.94919, -17.42186 ], [ -62.95319, -17.42752 ], [ -62.94874, -17.43387 ], [ -62.93903, -17.43276 ], [ -62.93801, -17.43554 ], [ -62.9412, -17.44054 ], [ -62.9404, -17.45132 ], [ -62.94382, -17.45455 ], [ -62.94965, -17.46835 ], [ -62.94965, -17.50159 ], [ -62.95091, -17.52662 ], [ -62.9484, -17.56954 ], [ -62.94976, -17.57966 ], [ -62.95581, -17.586 ], [ -62.95889, -17.59711 ], [ -62.91586, -17.58255 ], [ -62.90296, -17.58378 ], [ -62.88163, -17.5671 ], [ -62.84933, -17.53974 ], [ -62.84157, -17.53752 ], [ -62.79022, -17.53217 ], [ -62.79169, -17.52495 ], [ -62.79056, -17.51683 ], [ -62.7885, -17.51204 ], [ -62.78462, -17.50848 ], [ -62.77469, -17.50293 ], [ -62.77377, -17.49992 ], [ -62.71511, -17.49036 ], [ -62.68989, -17.49293 ], [ -62.65189, -17.52539 ], [ -62.631, -17.52072 ], [ -62.62074, -17.46601 ], [ -62.54027, -17.46144 ], [ -62.45707, -17.44832 ], [ -62.30528, -17.42386 ], [ -62.21501, -17.40829 ], [ -62.15669, -17.39885 ], [ -62.04702, -17.38071 ], [ -61.85232, -17.35214 ], [ -61.77951, -17.34157 ], [ -61.71194, -17.31466 ], [ -61.56859, -17.2575 ], [ -61.54942, -17.26583 ], [ -61.54635, -17.2675 ], [ -61.53984, -17.2734 ], [ -61.53744, -17.27729 ], [ -61.53618, -17.28241 ], [ -61.53105, -17.2843 ], [ -61.52637, -17.28274 ], [ -61.52613, -17.28541 ], [ -61.52192, -17.28508 ], [ -61.51895, -17.28852 ], [ -61.51632, -17.28552 ], [ -61.51415, -17.28718 ], [ -61.51062, -17.28586 ], [ -61.50525, -17.28919 ], [ -61.50046, -17.28953 ], [ -61.49738, -17.2952 ], [ -61.49704, -17.30076 ], [ -61.50674, -17.30275 ], [ -61.50902, -17.31221 ], [ -61.51028, -17.31388 ], [ -61.50936, -17.32033 ], [ -61.50948, -17.32645 ], [ -61.5008, -17.32723 ], [ -61.49646, -17.32445 ], [ -61.49544, -17.32067 ], [ -61.49178, -17.32211 ], [ -61.49282, -17.32622 ], [ -61.49282, -17.33823 ], [ -61.49031, -17.34157 ], [ -61.48916, -17.34624 ], [ -61.48369, -17.34568 ], [ -61.4805, -17.34669 ], [ -61.48084, -17.34212 ], [ -61.47935, -17.34035 ], [ -61.46941, -17.34124 ], [ -61.47171, -17.33389 ], [ -61.46885, -17.33379 ], [ -61.46873, -17.33011 ], [ -61.46292, -17.33101 ], [ -61.45583, -17.33034 ], [ -61.45264, -17.3319 ], [ -61.44864, -17.32612 ], [ -61.44466, -17.32511 ], [ -61.44123, -17.3269 ], [ -61.43883, -17.33112 ], [ -61.44157, -17.33478 ], [ -61.43746, -17.33735 ], [ -61.44579, -17.34913 ], [ -61.44614, -17.35436 ], [ -61.44202, -17.35636 ], [ -61.43952, -17.36003 ], [ -61.43598, -17.3588 ], [ -61.42959, -17.3587 ], [ -61.42263, -17.35425 ], [ -61.42114, -17.35191 ], [ -61.42514, -17.34769 ], [ -61.42354, -17.34302 ], [ -61.42114, -17.34413 ], [ -61.41806, -17.34235 ], [ -61.41224, -17.34169 ], [ -61.40973, -17.3399 ], [ -61.39958, -17.34212 ], [ -61.39958, -17.34868 ], [ -61.39707, -17.34858 ], [ -61.39432, -17.34302 ], [ -61.39124, -17.34457 ], [ -61.386, -17.34335 ], [ -61.38417, -17.34134 ], [ -61.37846, -17.34469 ], [ -61.37264, -17.34457 ], [ -61.36774, -17.34601 ], [ -61.36625, -17.34979 ], [ -61.35769, -17.35557 ], [ -61.3538, -17.35436 ], [ -61.35165, -17.36269 ], [ -61.35199, -17.36648 ], [ -61.3489, -17.37204 ], [ -61.34605, -17.36925 ], [ -61.34126, -17.36804 ], [ -61.33988, -17.37114 ], [ -61.33326, -17.3746 ], [ -61.3303, -17.3747 ], [ -61.32698, -17.37204 ], [ -61.32677, -17.36981 ], [ -61.31729, -17.36892 ], [ -61.3101, -17.37081 ], [ -61.30736, -17.37281 ], [ -61.30827, -17.37593 ], [ -61.30576, -17.37949 ], [ -61.3021, -17.3805 ], [ -61.30029, -17.38383 ], [ -61.2972, -17.38583 ], [ -61.29252, -17.38649 ], [ -61.29229, -17.38883 ], [ -61.28693, -17.39406 ], [ -61.28237, -17.39461 ], [ -61.28133, -17.39739 ], [ -61.27415, -17.39773 ], [ -61.26901, -17.39317 ], [ -61.2665, -17.39451 ], [ -61.26684, -17.3985 ], [ -61.26377, -17.40084 ], [ -61.25874, -17.39751 ], [ -61.25634, -17.39717 ], [ -61.25429, -17.40251 ], [ -61.26205, -17.40718 ], [ -61.26079, -17.41162 ], [ -61.25498, -17.41441 ], [ -61.25771, -17.42242 ], [ -61.25155, -17.42865 ], [ -61.24744, -17.43087 ], [ -61.24345, -17.43087 ], [ -61.24093, -17.42797 ], [ -61.2398, -17.42397 ], [ -61.23478, -17.42598 ], [ -61.23295, -17.42865 ], [ -61.2301, -17.42865 ], [ -61.22656, -17.42542 ], [ -61.21971, -17.4252 ], [ -61.21833, -17.42875 ], [ -61.21388, -17.42997 ], [ -61.2148, -17.4342 ], [ -61.22314, -17.43988 ], [ -61.22735, -17.43976 ], [ -61.22804, -17.44276 ], [ -61.22518, -17.44544 ], [ -61.2285, -17.45021 ], [ -61.22633, -17.45245 ], [ -61.21652, -17.45767 ], [ -61.20818, -17.45844 ], [ -61.20705, -17.468 ], [ -61.20316, -17.47201 ], [ -61.19996, -17.47757 ], [ -61.197, -17.47779 ], [ -61.19415, -17.48113 ], [ -61.1962, -17.48503 ], [ -61.19494, -17.48992 ], [ -61.20099, -17.4917 ], [ -61.1962, -17.49592 ], [ -61.18855, -17.5006 ], [ -61.18239, -17.50037 ], [ -61.18034, -17.50459 ], [ -61.17748, -17.50548 ], [ -61.17817, -17.50893 ], [ -61.17508, -17.51127 ], [ -61.17783, -17.51572 ], [ -61.17087, -17.51516 ], [ -61.1647, -17.51983 ], [ -61.16265, -17.51738 ], [ -61.15991, -17.5186 ], [ -61.16014, -17.53028 ], [ -61.15546, -17.53396 ], [ -61.14724, -17.53362 ], [ -61.14599, -17.5394 ], [ -61.14861, -17.54696 ], [ -61.14861, -17.54931 ], [ -61.14541, -17.5513 ], [ -61.14507, -17.55476 ], [ -61.14758, -17.55663 ], [ -61.15158, -17.55497 ], [ -61.1542, -17.55797 ], [ -61.15431, -17.56153 ], [ -61.15946, -17.56375 ], [ -61.16002, -17.56609 ], [ -61.16595, -17.56988 ], [ -61.17029, -17.5701 ], [ -61.17291, -17.57588 ], [ -61.17269, -17.58022 ], [ -61.1687, -17.58555 ], [ -61.15546, -17.58888 ], [ -61.15226, -17.59123 ], [ -61.14667, -17.59178 ], [ -61.14107, -17.6018 ], [ -61.14176, -17.60479 ], [ -61.13845, -17.60657 ], [ -61.12943, -17.6168 ], [ -61.13103, -17.62358 ], [ -61.13639, -17.62403 ], [ -61.1389, -17.63514 ], [ -61.13434, -17.63671 ], [ -61.13856, -17.64216 ], [ -61.13423, -17.64405 ], [ -61.13172, -17.6555 ], [ -61.13354, -17.65806 ], [ -61.13103, -17.66073 ], [ -61.13423, -17.6625 ], [ -61.14267, -17.6625 ], [ -61.14769, -17.66807 ], [ -61.1485, -17.67718 ], [ -61.15067, -17.68274 ], [ -61.15557, -17.69209 ], [ -61.15933, -17.69175 ], [ -61.1655, -17.6951 ], [ -61.17063, -17.69475 ], [ -61.17485, -17.69565 ], [ -61.17919, -17.70032 ], [ -61.18376, -17.69909 ], [ -61.18342, -17.70265 ], [ -61.1913, -17.70643 ], [ -61.19483, -17.71455 ], [ -61.20134, -17.71766 ], [ -61.20956, -17.71766 ], [ -61.2115, -17.72122 ], [ -61.21811, -17.719 ], [ -61.22416, -17.72534 ], [ -61.22336, -17.73235 ], [ -61.22016, -17.73679 ], [ -61.22039, -17.74101 ], [ -61.2221, -17.74547 ], [ -61.21594, -17.75269 ], [ -61.21354, -17.75314 ], [ -61.20909, -17.75814 ], [ -61.20522, -17.75892 ], [ -61.20145, -17.75693 ], [ -61.19826, -17.7597 ], [ -61.19323, -17.76036 ], [ -61.19323, -17.76326 ], [ -61.18775, -17.7616 ], [ -61.18832, -17.7667 ], [ -61.18615, -17.76705 ], [ -61.18023, -17.7746 ], [ -61.17634, -17.78116 ], [ -61.17783, -17.78795 ], [ -61.18387, -17.79239 ], [ -61.18719, -17.79084 ], [ -61.19095, -17.78494 ], [ -61.19347, -17.7835 ], [ -61.19792, -17.78805 ], [ -61.20453, -17.78906 ], [ -61.20441, -17.7944 ], [ -61.20875, -17.80329 ], [ -61.20635, -17.8093 ], [ -61.20841, -17.81308 ], [ -61.21001, -17.81954 ], [ -61.20875, -17.82776 ], [ -61.20441, -17.83499 ], [ -61.20601, -17.84132 ], [ -61.2132, -17.84422 ], [ -61.21811, -17.8927 ], [ -61.23021, -17.98033 ], [ -61.24002, -18.10421 ], [ -61.25645, -18.20864 ], [ -61.25794, -18.21431 ], [ -61.26364, -18.24656 ], [ -61.28852, -18.24356 ], [ -61.64928, -18.18873 ], [ -61.77608, -18.16816 ], [ -61.83338, -18.15781 ], [ -62.39784, -18.06707 ], [ -62.56093, -18.04861 ], [ -62.61663, -18.0415 ], [ -62.68419, -18.0336 ], [ -62.74855, -18.02514 ], [ -62.81041, -18.01815 ], [ -62.82421, -18.02626 ], [ -62.89053, -18.02671 ], [ -62.89087, -18.02259 ], [ -62.97384, -18.02448 ], [ -62.97384, -18.02459 ], [ -63.05041, -18.02626 ] ] ] } }
]
}
